{"type":"FeatureCollection","features":[{"type":"Feature","geometry":{"type":"LineString","coordinates":[[-53.38804,-24.981006],[-53.388688,-24.982069],[-53.389118,-24.982768],[-53.389492,-24.983401],[-53.389609,-24.983595],[-53.389814,-24.98393],[-53.389864,-24.984045],[-53.389897,-24.984138],[-53.38992,-24.984241],[-53.389927,-24.984309],[-53.389931,-24.984443],[-53.389897,-24.984637],[-53.389859,-24.984769],[-53.389796,-24.984897],[-53.389683,-24.985071],[-53.389573,-24.98519],[-53.389462,-24.985295],[-53.389352,-24.985381],[-53.389212,-24.985466],[-53.389059,-24.985536],[-53.3889,-24.98559],[-53.388752,-24.985609],[-53.388662,-24.985612],[-53.388488,-24.985588],[-53.388269,-24.985519],[-53.388031,-24.985418],[-53.387838,-24.9853],[-53.387621,-24.985139],[-53.387484,-24.984987],[-53.387388,-24.984852],[-53.387214,-24.98456],[-53.387062,-24.9843],[-53.386913,-24.984047],[-53.386744,-24.983763],[-53.386616,-24.983547],[-53.386385,-24.983154],[-53.386268,-24.982952],[-53.386095,-24.982663],[-53.386031,-24.982516],[-53.385988,-24.982365],[-53.38597,-24.982218],[-53.385981,-24.982069],[-53.386027,-24.981908],[-53.386175,-24.981609],[-53.386345,-24.981262],[-53.386401,-24.981123],[-53.386403,-24.980972],[-53.386354,-24.98084],[-53.386279,-24.980719],[-53.386159,-24.980618],[-53.386055,-24.980561],[-53.385905,-24.980518],[-53.38575,-24.980522],[-53.385412,-24.980577],[-53.384716,-24.980685],[-53.384059,-24.980789],[-53.38394,-24.98083],[-53.383812,-24.98088],[-53.383673,-24.980961],[-53.383486,-24.981101],[-53.383177,-24.981363],[-53.382883,-24.981604],[-53.382511,-24.981916],[-53.38207,-24.982281],[-53.381794,-24.982508],[-53.381548,-24.982713],[-53.381435,-24.982782],[-53.381314,-24.982821],[-53.381172,-24.982847],[-53.381038,-24.982843],[-53.380909,-24.982805],[-53.380795,-24.982748],[-53.38069,-24.982671],[-53.380612,-24.982588],[-53.38036,-24.982201],[-53.380148,-24.981876],[-53.380124,-24.981792],[-53.380123,-24.981663],[-53.380176,-24.981564],[-53.380259,-24.981467],[-53.380373,-24.981403],[-53.380898,-24.981232],[-53.381816,-24.980924],[-53.382994,-24.980533],[-53.383942,-24.980215],[-53.384425,-24.980058],[-53.384972,-24.979877],[-53.385788,-24.979608],[-53.386299,-24.97944],[-53.386485,-24.979402],[-53.386717,-24.979397],[-53.386947,-24.979458],[-53.387008,-24.979489],[-53.38709,-24.979549],[-53.387183,-24.979631],[-53.387261,-24.979729],[-53.387409,-24.97997],[-53.387631,-24.980333],[-53.387861,-24.980709],[-53.388039,-24.981006]]},"properties":{"stroke-width":7}},{"type":"Feature","geometry":{"type":"LineString","coordinates":[[-53.383946,-24.980213],[-53.384075,-24.980234],[-53.384278,-24.980168],[-53.384747,-24.980011],[-53.385242,-24.97991],[-53.385724,-24.979813],[-53.385889,-24.979812],[-53.386177,-24.979851],[-53.386227,-24.979849],[-53.38644,-24.979655],[-53.386581,-24.979604],[-53.386662,-24.979591],[-53.38679,-24.979591],[-53.386886,-24.979607],[-53.387095,-24.979728],[-53.387272,-24.980025],[-53.387436,-24.980298],[-53.387549,-24.980487],[-53.387955,-24.981159],[-53.38812,-24.981434],[-53.388292,-24.981719],[-53.388431,-24.981946],[-53.388525,-24.982102],[-53.388636,-24.982288],[-53.388731,-24.982446],[-53.388906,-24.982734],[-53.389046,-24.982968],[-53.389298,-24.983383],[-53.38938,-24.983522],[-53.38945,-24.983661],[-53.389525,-24.983804],[-53.38957,-24.983999],[-53.38956,-24.984119],[-53.389545,-24.984315],[-53.389445,-24.984602],[-53.389263,-24.984837],[-53.389042,-24.984997],[-53.388781,-24.985119],[-53.388468,-24.985193],[-53.388279,-24.985194],[-53.388094,-24.985168],[-53.387889,-24.985114],[-53.387746,-24.985045],[-53.387529,-24.98487],[-53.387342,-24.984642],[-53.387295,-24.984582],[-53.387008,-24.984121],[-53.38684,-24.983851],[-53.386717,-24.983651],[-53.386675,-24.98358],[-53.386619,-24.983551]]},"properties":{"stroke-width":7}}]}