{"type":"FeatureCollection","features":[{"type":"Feature","geometry":{"type":"LineString","coordinates":[[-52.714337,-27.221691],[-52.71373,-27.221689],[-52.712939,-27.221681],[-52.711837,-27.22167],[-52.710819,-27.22166],[-52.710263,-27.221657],[-52.710023,-27.221654],[-52.70944,-27.221576],[-52.709199,-27.221381],[-52.709156,-27.220992],[-52.709295,-27.220779],[-52.709621,-27.220609],[-52.710071,-27.220574],[-52.710546,-27.220602],[-52.710723,-27.220512],[-52.710879,-27.220223],[-52.711056,-27.21969],[-52.711025,-27.219513],[-52.710887,-27.219337],[-52.710832,-27.219269],[-52.710775,-27.219181],[-52.710816,-27.219003],[-52.71096,-27.218899],[-52.711177,-27.218754],[-52.711475,-27.218558],[-52.711822,-27.218409],[-52.712139,-27.218422],[-52.712386,-27.218534],[-52.712553,-27.218694],[-52.712731,-27.218868],[-52.712857,-27.21899],[-52.713095,-27.219143],[-52.713315,-27.219285],[-52.713439,-27.219364],[-52.713712,-27.219446],[-52.714104,-27.219564],[-52.714392,-27.219597],[-52.714634,-27.219626],[-52.714842,-27.219649],[-52.715117,-27.219615],[-52.715466,-27.219573],[-52.715714,-27.219492],[-52.715917,-27.219425],[-52.716087,-27.219372],[-52.716242,-27.219321],[-52.716399,-27.219221],[-52.716802,-27.218966],[-52.716928,-27.218812],[-52.717098,-27.218607],[-52.717291,-27.218482],[-52.717419,-27.218487],[-52.717564,-27.218547],[-52.717723,-27.218711],[-52.71793,-27.21892],[-52.718162,-27.219156],[-52.718273,-27.219268],[-52.718399,-27.219396],[-52.718509,-27.219507],[-52.718624,-27.219623],[-52.718699,-27.219752],[-52.718701,-27.219755],[-52.718674,-27.219907],[-52.718599,-27.220015],[-52.718481,-27.220036],[-52.718341,-27.220058],[-52.718223,-27.220077],[-52.718051,-27.220073],[-52.717779,-27.220065],[-52.717501,-27.220056],[-52.717256,-27.22005],[-52.716967,-27.220039],[-52.716641,-27.22003],[-52.716398,-27.220023],[-52.716188,-27.220016],[-52.716026,-27.220015],[-52.715773,-27.220012],[-52.715475,-27.220008],[-52.715279,-27.220005],[-52.715069,-27.220004],[-52.7149,-27.220001],[-52.714569,-27.219997],[-52.714226,-27.219994],[-52.714141,-27.219992],[-52.713925,-27.219947],[-52.713712,-27.219903],[-52.713474,-27.219852],[-52.713255,-27.219805],[-52.71275,-27.219507],[-52.712539,-27.219383],[-52.712376,-27.219285],[-52.712237,-27.219201],[-52.71201,-27.219139],[-52.711814,-27.219185],[-52.711672,-27.219417],[-52.711641,-27.219627],[-52.711653,-27.219973],[-52.71166,-27.220229],[-52.711627,-27.220483],[-52.71163,-27.220611],[-52.711623,-27.220764],[-52.711623,-27.220832],[-52.711623,-27.220842],[-52.711749,-27.220876],[-52.712035,-27.220844],[-52.712431,-27.220828],[-52.713694,-27.220783],[-52.714287,-27.220769],[-52.715089,-27.220751],[-52.715599,-27.220739],[-52.716358,-27.220721],[-52.716955,-27.220708],[-52.717422,-27.220696],[-52.71775,-27.220689],[-52.718016,-27.220675],[-52.71824,-27.220663],[-52.718385,-27.220656],[-52.718518,-27.220729],[-52.718632,-27.22079],[-52.718715,-27.220903],[-52.718766,-27.22097],[-52.718789,-27.221092],[-52.718813,-27.221219],[-52.718771,-27.221358],[-52.718732,-27.22148],[-52.718558,-27.221607],[-52.718447,-27.221687],[-52.71812,-27.221744],[-52.717577,-27.221737],[-52.716594,-27.221722],[-52.715947,-27.221714],[-52.71504,-27.221702],[-52.71446,-27.221695],[-52.714338,-27.221691],[-52.714337,-27.221691]]},"properties":{"stroke-width":7}},{"type":"Feature","properties":{"stroke-width":7},"geometry":{"type":"LineString","coordinates":[[-52.712692,-27.220819],[-52.712441,-27.220914],[-52.712239,-27.221042],[-52.712148,-27.221269],[-52.712202,-27.221428],[-52.71238,-27.221549],[-52.712559,-27.221653],[-52.712727,-27.221673]]}},{"type":"Feature","properties":{"stroke-width":7},"geometry":{"type":"LineString","coordinates":[[-52.711729,-27.220871],[-52.711375,-27.220925],[-52.711172,-27.221045],[-52.711053,-27.221314],[-52.710983,-27.221661]]}}]}