{"type":"FeatureCollection","features":[{"type":"Feature","geometry":{"type":"LineString","coordinates":[[-52.714337,-27.221691],[-52.71373,-27.221689],[-52.712939,-27.221681],[-52.711837,-27.22167],[-52.710819,-27.22166],[-52.710263,-27.221657],[-52.710023,-27.221654],[-52.70944,-27.221576],[-52.709199,-27.221381],[-52.709156,-27.220992],[-52.709295,-27.220779],[-52.709621,-27.220609],[-52.710071,-27.220574],[-52.710546,-27.220602],[-52.710723,-27.220512],[-52.710879,-27.220223],[-52.711056,-27.21969],[-52.711025,-27.219513],[-52.710887,-27.219337],[-52.710832,-27.219269],[-52.710775,-27.219181],[-52.710816,-27.219003],[-52.71096,-27.218899],[-52.711177,-27.218754],[-52.711475,-27.218558],[-52.711822,-27.218409],[-52.712139,-27.218422],[-52.712386,-27.218534],[-52.712553,-27.218694],[-52.712731,-27.218868],[-52.712857,-27.21899],[-52.713095,-27.219143],[-52.713315,-27.219285],[-52.713439,-27.219364],[-52.713712,-27.219446],[-52.714104,-27.219564],[-52.714392,-27.219597],[-52.714634,-27.219626],[-52.714842,-27.219649],[-52.715117,-27.219615],[-52.715466,-27.219573],[-52.715714,-27.219492],[-52.715917,-27.219425],[-52.716087,-27.219372],[-52.716242,-27.219321],[-52.716399,-27.219221],[-52.716802,-27.218966],[-52.716928,-27.218812],[-52.717098,-27.218607],[-52.717291,-27.218482],[-52.717419,-27.218487],[-52.717564,-27.218547],[-52.717723,-27.218711],[-52.71793,-27.21892],[-52.718162,-27.219156],[-52.718273,-27.219268],[-52.718399,-27.219396],[-52.718509,-27.219507],[-52.718624,-27.219623],[-52.718699,-27.219752],[-52.718701,-27.219755],[-52.718674,-27.219907],[-52.718599,-27.220015],[-52.718481,-27.220036],[-52.718341,-27.220058],[-52.718223,-27.220077],[-52.718051,-27.220073],[-52.717779,-27.220065],[-52.717501,-27.220056],[-52.717256,-27.22005],[-52.716967,-27.220039],[-52.716641,-27.22003],[-52.716398,-27.220023],[-52.716188,-27.220016],[-52.716026,-27.220015],[-52.715773,-27.220012],[-52.715475,-27.220008],[-52.715279,-27.220005],[-52.715069,-27.220004],[-52.7149,-27.220001],[-52.714569,-27.219997],[-52.714226,-27.219994],[-52.714141,-27.219992],[-52.713925,-27.219947],[-52.713712,-27.219903],[-52.713474,-27.219852],[-52.713255,-27.219805],[-52.71275,-27.219507],[-52.712539,-27.219383],[-52.712376,-27.219285],[-52.712237,-27.219201],[-52.71201,-27.219139],[-52.711814,-27.219185],[-52.711672,-27.219417],[-52.711641,-27.219627],[-52.711653,-27.219973],[-52.71166,-27.220229],[-52.711627,-27.220483],[-52.71163,-27.220611],[-52.711623,-27.220764],[-52.711623,-27.220832],[-52.711623,-27.220842],[-52.711749,-27.220876],[-52.712035,-27.220844],[-52.712431,-27.220828],[-52.713694,-27.220783],[-52.714287,-27.220769],[-52.715089,-27.220751],[-52.715599,-27.220739],[-52.716358,-27.220721],[-52.716955,-27.220708],[-52.717422,-27.220696],[-52.71775,-27.220689],[-52.718016,-27.220675],[-52.71824,-27.220663],[-52.718385,-27.220656],[-52.718518,-27.220729],[-52.718632,-27.22079],[-52.718715,-27.220903],[-52.718766,-27.22097],[-52.718789,-27.221092],[-52.718813,-27.221219],[-52.718771,-27.221358],[-52.718732,-27.22148],[-52.718558,-27.221607],[-52.718447,-27.221687],[-52.71812,-27.221744],[-52.717577,-27.221737],[-52.716594,-27.221722],[-52.715947,-27.221714],[-52.71504,-27.221702],[-52.71446,-27.221695],[-52.714338,-27.221691],[-52.714337,-27.221691]]},"properties":{"stroke-width":7}},{"type":"Feature","properties":{"stroke-width":7},"geometry":{"type":"LineString","coordinates":[[-52.712692,-27.220819],[-52.712441,-27.220914],[-52.712239,-27.221042],[-52.712148,-27.221269],[-52.712202,-27.221428],[-52.71238,-27.221549],[-52.712559,-27.221653],[-52.712727,-27.221673]]}},{"type":"Feature","properties":{"stroke-width":7},"geometry":{"type":"LineString","coordinates":[[-52.711729,-27.220871],[-52.711375,-27.220925],[-52.711172,-27.221045],[-52.711053,-27.221314],[-52.710983,-27.221661]]}},{"type":"Feature","properties":{"stroke-width":7},"geometry":{"type":"LineString","coordinates":[[-52.710999,-27.221658],[-52.711034,-27.221848],[-52.71186,-27.221858],[-52.713159,-27.221858],[-52.715275,-27.221876],[-52.716509,-27.221838],[-52.717233,-27.221731]]}},{"type":"Feature","geometry":{"type":"LineString","coordinates":[[-52.43465,-29.802058],[-52.434416,-29.801529],[-52.434255,-29.801162],[-52.434098,-29.800807],[-52.433971,-29.800518],[-52.43389,-29.800334],[-52.433826,-29.800188],[-52.433747,-29.800011],[-52.433689,-29.799876],[-52.433614,-29.799708],[-52.433526,-29.799505],[-52.433394,-29.799207],[-52.43333,-29.799061],[-52.43331,-29.799013],[-52.433207,-29.798782],[-52.433095,-29.798527],[-52.432941,-29.798181],[-52.432767,-29.797782],[-52.43272,-29.797676],[-52.432639,-29.797496],[-52.432567,-29.797329],[-52.432514,-29.79721],[-52.432504,-29.797193],[-52.432484,-29.797064],[-52.432486,-29.796962],[-52.432526,-29.796869],[-52.432602,-29.796807],[-52.432742,-29.796744],[-52.432847,-29.796731],[-52.433145,-29.796723],[-52.433655,-29.796709],[-52.434133,-29.796696],[-52.43429,-29.796712],[-52.434399,-29.796763],[-52.434519,-29.796883],[-52.434609,-29.796944],[-52.434729,-29.796973],[-52.435618,-29.796963],[-52.435813,-29.796949],[-52.435989,-29.796925],[-52.436371,-29.796848],[-52.436861,-29.796751],[-52.437344,-29.796655],[-52.437704,-29.796583],[-52.437887,-29.796511],[-52.43802,-29.796437],[-52.438242,-29.796232],[-52.438385,-29.796098],[-52.438533,-29.796026],[-52.438632,-29.796003],[-52.438751,-29.795999],[-52.438872,-29.79601],[-52.439003,-29.796059],[-52.43911,-29.79613],[-52.439177,-29.796201],[-52.439245,-29.796312],[-52.439283,-29.796423],[-52.439291,-29.796519],[-52.439266,-29.796628],[-52.439214,-29.796737],[-52.439117,-29.796827],[-52.439013,-29.796891],[-52.438871,-29.796949],[-52.438864,-29.796952],[-52.438715,-29.796967],[-52.438443,-29.79699],[-52.438262,-29.797028],[-52.438243,-29.797036],[-52.438185,-29.797066],[-52.438111,-29.797106],[-52.43794,-29.797215],[-52.437932,-29.797221],[-52.437761,-29.797401],[-52.437594,-29.797577],[-52.437437,-29.797743],[-52.437316,-29.797869],[-52.436944,-29.798261],[-52.436685,-29.798529],[-52.436524,-29.798704],[-52.436424,-29.798816],[-52.436302,-29.798949],[-52.436188,-29.799075],[-52.436097,-29.799177],[-52.436003,-29.799278],[-52.435975,-29.799313],[-52.435903,-29.799391],[-52.435897,-29.799398],[-52.435751,-29.799511],[-52.435631,-29.799582],[-52.435505,-29.799607],[-52.435319,-29.799569],[-52.435059,-29.799482],[-52.434971,-29.799481],[-52.43487,-29.799517],[-52.434776,-29.799584],[-52.434699,-29.799667],[-52.434672,-29.799766],[-52.43468,-29.799844],[-52.434721,-29.799959],[-52.434902,-29.800109],[-52.435086,-29.800261],[-52.435249,-29.800395],[-52.435373,-29.800447],[-52.435527,-29.800466],[-52.435677,-29.800437],[-52.435871,-29.800348],[-52.436286,-29.799984],[-52.436343,-29.799931],[-52.436481,-29.79981],[-52.436573,-29.799728],[-52.436653,-29.799656],[-52.436729,-29.799591],[-52.436885,-29.799451],[-52.437054,-29.799343],[-52.43724,-29.799257],[-52.437483,-29.799212],[-52.437706,-29.799211],[-52.43793,-29.799263],[-52.438107,-29.799335],[-52.43825,-29.799422],[-52.438407,-29.799567],[-52.438518,-29.79975],[-52.438582,-29.799909],[-52.438608,-29.800098],[-52.4386,-29.800239],[-52.438555,-29.800397],[-52.438484,-29.800543],[-52.438384,-29.800672],[-52.438191,-29.800856],[-52.438054,-29.801055],[-52.437948,-29.801303],[-52.437931,-29.80145],[-52.437922,-29.80165],[-52.437946,-29.801804],[-52.438,-29.801958],[-52.438151,-29.80217],[-52.438346,-29.802359],[-52.438563,-29.802525],[-52.438652,-29.802597],[-52.43866,-29.802603],[-52.438786,-29.802778],[-52.438863,-29.802978],[-52.438881,-29.80319],[-52.438834,-29.803382],[-52.43875,-29.803545],[-52.438625,-29.803677],[-52.438462,-29.803789],[-52.438285,-29.803863],[-52.438051,-29.803898],[-52.437626,-29.803904],[-52.437208,-29.803909],[-52.436873,-29.803916],[-52.436435,-29.803926],[-52.436296,-29.803929],[-52.43604,-29.803914],[-52.435839,-29.803876],[-52.435701,-29.803818],[-52.435549,-29.803715],[-52.435387,-29.803571],[-52.435251,-29.803374],[-52.435246,-29.803366],[-52.435134,-29.803161],[-52.435079,-29.803031],[-52.434993,-29.80284],[-52.434888,-29.802603],[-52.434806,-29.802411],[-52.434707,-29.802189],[-52.43465,-29.802058]]},"properties":{"stroke-width":7}},{"type":"Feature","geometry":{"type":"LineString","coordinates":[[-52.437598,-29.803903],[-52.437425,-29.803884],[-52.437416,-29.803883],[-52.437252,-29.803871],[-52.437194,-29.803866],[-52.436923,-29.803858],[-52.436732,-29.803852],[-52.436546,-29.803834],[-52.436457,-29.803824],[-52.436154,-29.80378],[-52.435954,-29.803736],[-52.435829,-29.803702],[-52.435707,-29.803635],[-52.435615,-29.803567],[-52.435518,-29.80345],[-52.435418,-29.803247],[-52.435361,-29.80313],[-52.435338,-29.803084],[-52.435311,-29.803027],[-52.435271,-29.802939],[-52.435226,-29.802844],[-52.435204,-29.802793],[-52.435189,-29.802761],[-52.435148,-29.802672],[-52.435085,-29.802536],[-52.435073,-29.802509],[-52.43505,-29.802457],[-52.435017,-29.802386],[-52.434961,-29.802265],[-52.434892,-29.802113],[-52.434847,-29.802015],[-52.434814,-29.801944],[-52.434756,-29.801817],[-52.434639,-29.801564],[-52.43452,-29.801308],[-52.434484,-29.801232],[-52.434423,-29.801108],[-52.434387,-29.801033],[-52.434435,-29.800986],[-52.434459,-29.80092],[-52.434456,-29.800859],[-52.434446,-29.800724],[-52.4344,-29.800623],[-52.434346,-29.800499],[-52.434251,-29.800283],[-52.434196,-29.800157],[-52.434144,-29.80004],[-52.434114,-29.799971],[-52.434081,-29.799893],[-52.434029,-29.799777],[-52.433984,-29.799675],[-52.433917,-29.799525],[-52.433863,-29.799401],[-52.433817,-29.799295],[-52.433793,-29.799241],[-52.433759,-29.799165],[-52.433716,-29.799066],[-52.433697,-29.799029],[-52.433526,-29.798937],[-52.433195,-29.798754]]},"properties":{"stroke-width":7}},{"type":"Feature","geometry":{"type":"LineString","coordinates":[[-53.38804,-24.981006],[-53.388688,-24.982069],[-53.389118,-24.982768],[-53.389492,-24.983401],[-53.389609,-24.983595],[-53.389814,-24.98393],[-53.389864,-24.984045],[-53.389897,-24.984138],[-53.38992,-24.984241],[-53.389927,-24.984309],[-53.389931,-24.984443],[-53.389897,-24.984637],[-53.389859,-24.984769],[-53.389796,-24.984897],[-53.389683,-24.985071],[-53.389573,-24.98519],[-53.389462,-24.985295],[-53.389352,-24.985381],[-53.389212,-24.985466],[-53.389059,-24.985536],[-53.3889,-24.98559],[-53.388752,-24.985609],[-53.388662,-24.985612],[-53.388488,-24.985588],[-53.388269,-24.985519],[-53.388031,-24.985418],[-53.387838,-24.9853],[-53.387621,-24.985139],[-53.387484,-24.984987],[-53.387388,-24.984852],[-53.387214,-24.98456],[-53.387062,-24.9843],[-53.386913,-24.984047],[-53.386744,-24.983763],[-53.386616,-24.983547],[-53.386385,-24.983154],[-53.386268,-24.982952],[-53.386095,-24.982663],[-53.386031,-24.982516],[-53.385988,-24.982365],[-53.38597,-24.982218],[-53.385981,-24.982069],[-53.386027,-24.981908],[-53.386175,-24.981609],[-53.386345,-24.981262],[-53.386401,-24.981123],[-53.386403,-24.980972],[-53.386354,-24.98084],[-53.386279,-24.980719],[-53.386159,-24.980618],[-53.386055,-24.980561],[-53.385905,-24.980518],[-53.38575,-24.980522],[-53.385412,-24.980577],[-53.384716,-24.980685],[-53.384059,-24.980789],[-53.38394,-24.98083],[-53.383812,-24.98088],[-53.383673,-24.980961],[-53.383486,-24.981101],[-53.383177,-24.981363],[-53.382883,-24.981604],[-53.382511,-24.981916],[-53.38207,-24.982281],[-53.381794,-24.982508],[-53.381548,-24.982713],[-53.381435,-24.982782],[-53.381314,-24.982821],[-53.381172,-24.982847],[-53.381038,-24.982843],[-53.380909,-24.982805],[-53.380795,-24.982748],[-53.38069,-24.982671],[-53.380612,-24.982588],[-53.38036,-24.982201],[-53.380148,-24.981876],[-53.380124,-24.981792],[-53.380123,-24.981663],[-53.380176,-24.981564],[-53.380259,-24.981467],[-53.380373,-24.981403],[-53.380898,-24.981232],[-53.381816,-24.980924],[-53.382994,-24.980533],[-53.383942,-24.980215],[-53.384425,-24.980058],[-53.384972,-24.979877],[-53.385788,-24.979608],[-53.386299,-24.97944],[-53.386485,-24.979402],[-53.386717,-24.979397],[-53.386947,-24.979458],[-53.387008,-24.979489],[-53.38709,-24.979549],[-53.387183,-24.979631],[-53.387261,-24.979729],[-53.387409,-24.97997],[-53.387631,-24.980333],[-53.387861,-24.980709],[-53.388039,-24.981006]]},"properties":{"stroke-width":9}},{"type":"Feature","geometry":{"type":"LineString","coordinates":[[-53.383946,-24.980213],[-53.384075,-24.980234],[-53.384278,-24.980168],[-53.384747,-24.980011],[-53.385242,-24.97991],[-53.385724,-24.979813],[-53.385889,-24.979812],[-53.386177,-24.979851],[-53.386227,-24.979849],[-53.38644,-24.979655],[-53.386581,-24.979604],[-53.386662,-24.979591],[-53.38679,-24.979591],[-53.386886,-24.979607],[-53.387095,-24.979728],[-53.387272,-24.980025],[-53.387436,-24.980298],[-53.387549,-24.980487],[-53.387955,-24.981159],[-53.38812,-24.981434],[-53.388292,-24.981719],[-53.388431,-24.981946],[-53.388525,-24.982102],[-53.388636,-24.982288],[-53.388731,-24.982446],[-53.388906,-24.982734],[-53.389046,-24.982968],[-53.389298,-24.983383],[-53.38938,-24.983522],[-53.38945,-24.983661],[-53.389525,-24.983804],[-53.38957,-24.983999],[-53.38956,-24.984119],[-53.389545,-24.984315],[-53.389445,-24.984602],[-53.389263,-24.984837],[-53.389042,-24.984997],[-53.388781,-24.985119],[-53.388468,-24.985193],[-53.388279,-24.985194],[-53.388094,-24.985168],[-53.387889,-24.985114],[-53.387746,-24.985045],[-53.387529,-24.98487],[-53.387342,-24.984642],[-53.387295,-24.984582],[-53.387008,-24.984121],[-53.38684,-24.983851],[-53.386717,-24.983651],[-53.386675,-24.98358],[-53.386619,-24.983551]]},"properties":{"stroke-width":7}},{"type":"Feature","geometry":{"type":"LineString","coordinates":[[-46.700002,-23.703676],[-46.699364,-23.705939],[-46.699319,-23.706038],[-46.699243,-23.706174],[-46.69912,-23.706323],[-46.698973,-23.706424],[-46.698879,-23.706443],[-46.698748,-23.706424],[-46.69868,-23.706388],[-46.698609,-23.706335],[-46.698323,-23.706052],[-46.698279,-23.706023],[-46.69821,-23.70599],[-46.698134,-23.70598],[-46.698064,-23.705985],[-46.697982,-23.706016],[-46.697906,-23.706054],[-46.697802,-23.706119],[-46.697553,-23.706244],[-46.697323,-23.706305],[-46.696948,-23.706323],[-46.696759,-23.706298],[-46.696655,-23.706277],[-46.696486,-23.706217],[-46.696259,-23.706102],[-46.696041,-23.705944],[-46.695859,-23.705744],[-46.695727,-23.705511],[-46.695468,-23.704758],[-46.695251,-23.704058],[-46.695029,-23.703306],[-46.694938,-23.70297],[-46.694778,-23.702371],[-46.694374,-23.70099],[-46.694105,-23.700122],[-46.69407,-23.700004],[-46.694057,-23.699901],[-46.694066,-23.699808],[-46.694085,-23.699738],[-46.694108,-23.699684],[-46.694169,-23.699613],[-46.694242,-23.699556],[-46.694319,-23.699519],[-46.694629,-23.69945],[-46.694987,-23.699392],[-46.695273,-23.699352],[-46.695366,-23.699349],[-46.695528,-23.699352],[-46.695667,-23.699372],[-46.695771,-23.699399],[-46.695902,-23.699445],[-46.695999,-23.699493],[-46.696121,-23.699571],[-46.69622,-23.699653],[-46.696288,-23.69971],[-46.696516,-23.699969],[-46.696676,-23.700168],[-46.697041,-23.70063],[-46.697526,-23.701248],[-46.697866,-23.701673],[-46.698199,-23.702098],[-46.698276,-23.702193],[-46.698396,-23.702291],[-46.698478,-23.702337],[-46.698662,-23.702402],[-46.698822,-23.702413],[-46.698999,-23.70241],[-46.699218,-23.70237],[-46.699449,-23.702281],[-46.699633,-23.702169],[-46.699737,-23.702074],[-46.699786,-23.701978],[-46.699843,-23.701804],[-46.699922,-23.701409],[-46.699969,-23.701116],[-46.699988,-23.70102],[-46.7,-23.700887],[-46.7,-23.700769],[-46.699983,-23.700676],[-46.699941,-23.700607],[-46.699864,-23.700557],[-46.699787,-23.700528],[-46.699697,-23.700517],[-46.699622,-23.700536],[-46.699529,-23.700575],[-46.699432,-23.700634],[-46.699289,-23.700731],[-46.699181,-23.700785],[-46.699074,-23.700806],[-46.698942,-23.700802],[-46.698827,-23.700764],[-46.698736,-23.700713],[-46.698665,-23.700625],[-46.698627,-23.700546],[-46.698599,-23.700465],[-46.698614,-23.700303],[-46.698661,-23.700206],[-46.698785,-23.700073],[-46.699111,-23.699786],[-46.699349,-23.699542],[-46.699419,-23.699445],[-46.699497,-23.6993],[-46.699541,-23.699154],[-46.69964,-23.69877],[-46.699644,-23.698629],[-46.699596,-23.698523],[-46.699516,-23.698477],[-46.699442,-23.698448],[-46.699354,-23.698446],[-46.69928,-23.698475],[-46.699218,-23.698521],[-46.699152,-23.698582],[-46.699071,-23.698659],[-46.698721,-23.699007],[-46.69859,-23.699136],[-46.69851,-23.699199],[-46.698432,-23.699248],[-46.698322,-23.699303],[-46.698185,-23.699356],[-46.698068,-23.69938],[-46.697891,-23.699395],[-46.697723,-23.699385],[-46.697549,-23.699349],[-46.697406,-23.699287],[-46.697269,-23.6992],[-46.697154,-23.699107],[-46.69704,-23.698961],[-46.696819,-23.698651],[-46.69642,-23.698057],[-46.696225,-23.69776],[-46.696149,-23.697638],[-46.696137,-23.697552],[-46.696156,-23.697485],[-46.69618,-23.697444],[-46.696232,-23.697385],[-46.696318,-23.697333],[-46.696592,-23.697221],[-46.697238,-23.697005],[-46.697298,-23.696996],[-46.697347,-23.696995],[-46.697381,-23.696995],[-46.697486,-23.697005],[-46.697955,-23.697073],[-46.69828,-23.697142],[-46.698484,-23.697206],[-46.698789,-23.697336],[-46.699133,-23.697488],[-46.699368,-23.697623],[-46.699493,-23.697714],[-46.699614,-23.697818],[-46.699717,-23.69792],[-46.699833,-23.698087],[-46.699916,-23.698247],[-46.699977,-23.698403],[-46.700054,-23.698671],[-46.700116,-23.69891],[-46.700187,-23.699174],[-46.70028,-23.69954],[-46.700412,-23.700035],[-46.700515,-23.700444],[-46.700542,-23.700547],[-46.700555,-23.700598],[-46.700573,-23.700699],[-46.700594,-23.700857],[-46.700601,-23.700971],[-46.700608,-23.701141],[-46.700598,-23.701338],[-46.700562,-23.701564],[-46.700531,-23.701751],[-46.700464,-23.702029],[-46.700391,-23.70229],[-46.700308,-23.702591],[-46.700184,-23.703032],[-46.700002,-23.703675]]},"properties":{"stroke-width":7}},{"type":"Feature","geometry":{"type":"LineString","coordinates":[[-46.848706,-22.287356],[-46.849222,-22.287086],[-46.849914,-22.286727],[-46.850538,-22.286403],[-46.851056,-22.286127],[-46.851265,-22.286022],[-46.851552,-22.285878],[-46.851632,-22.285838],[-46.8517,-22.285817],[-46.851793,-22.285806],[-46.851865,-22.285807],[-46.85194,-22.285821],[-46.851998,-22.285847],[-46.852047,-22.285881],[-46.852088,-22.285925],[-46.852114,-22.285966],[-46.852141,-22.286012],[-46.852164,-22.286073],[-46.852182,-22.286156],[-46.852201,-22.286285],[-46.852205,-22.286386],[-46.852203,-22.286502],[-46.85219,-22.286627],[-46.852157,-22.286744],[-46.852055,-22.287125],[-46.851979,-22.287393],[-46.851915,-22.287624],[-46.851883,-22.287698],[-46.85183,-22.28777],[-46.851767,-22.287827],[-46.85169,-22.287885],[-46.851609,-22.287925],[-46.851527,-22.287952],[-46.851446,-22.287971],[-46.851345,-22.287979],[-46.851206,-22.287974],[-46.851001,-22.287951],[-46.850668,-22.287911],[-46.850337,-22.287873],[-46.850098,-22.287842],[-46.849976,-22.287861],[-46.849898,-22.287871],[-46.849788,-22.287903],[-46.849704,-22.287937],[-46.849647,-22.287963],[-46.849629,-22.287974],[-46.849584,-22.288008],[-46.849535,-22.288049],[-46.849507,-22.288072],[-46.849421,-22.288174],[-46.849319,-22.288297],[-46.849253,-22.288367],[-46.849223,-22.288401],[-46.849172,-22.288438],[-46.849103,-22.288486],[-46.849034,-22.288531],[-46.848973,-22.288563],[-46.848933,-22.288582],[-46.848864,-22.288602],[-46.848827,-22.288617],[-46.848786,-22.28863],[-46.848725,-22.288641],[-46.848679,-22.28865],[-46.848619,-22.288662],[-46.848563,-22.288673],[-46.848508,-22.28868],[-46.848438,-22.288688],[-46.848364,-22.288697],[-46.848287,-22.288695],[-46.848172,-22.288699],[-46.848063,-22.288713],[-46.847936,-22.288742],[-46.8478,-22.288786],[-46.847595,-22.288879],[-46.847363,-22.288998],[-46.847059,-22.289163],[-46.846914,-22.289251],[-46.846843,-22.289301],[-46.846801,-22.289349],[-46.84676,-22.289413],[-46.846736,-22.289493],[-46.846729,-22.289563],[-46.846747,-22.289634],[-46.846768,-22.28968],[-46.846792,-22.289715],[-46.846848,-22.289781],[-46.847122,-22.29004],[-46.847636,-22.290517],[-46.848036,-22.290888],[-46.848101,-22.290948],[-46.848132,-22.290985],[-46.848173,-22.291043],[-46.848197,-22.291097],[-46.848227,-22.291184],[-46.848238,-22.291235],[-46.848244,-22.291263],[-46.848249,-22.291375],[-46.848238,-22.291444],[-46.848192,-22.291584],[-46.848004,-22.291964],[-46.847727,-22.292516],[-46.847553,-22.292867],[-46.847492,-22.292982],[-46.847425,-22.293056],[-46.847391,-22.293082],[-46.847303,-22.293109],[-46.847228,-22.293113],[-46.847148,-22.293103],[-46.847072,-22.29307],[-46.847006,-22.293014],[-46.846976,-22.292966],[-46.846954,-22.292907],[-46.846944,-22.292839],[-46.846952,-22.292777],[-46.846954,-22.292758],[-46.847017,-22.292528],[-46.847047,-22.2924],[-46.847067,-22.292272],[-46.847079,-22.292068],[-46.847069,-22.291899],[-46.847039,-22.29174],[-46.847014,-22.291641],[-46.846924,-22.291396],[-46.846831,-22.291225],[-46.846773,-22.291131],[-46.846622,-22.290928],[-46.846441,-22.290687],[-46.846037,-22.290154],[-46.845771,-22.2898],[-46.845704,-22.289709],[-46.845442,-22.289356],[-46.84527,-22.289119],[-46.845133,-22.288934],[-46.845001,-22.288754],[-46.844929,-22.288659],[-46.844888,-22.288604],[-46.844855,-22.288528],[-46.844841,-22.288464],[-46.844844,-22.288417],[-46.844873,-22.28834],[-46.844935,-22.288284],[-46.84505,-22.288226],[-46.845099,-22.288184],[-46.845141,-22.288127],[-46.845157,-22.288086],[-46.845157,-22.288036],[-46.845142,-22.287978],[-46.845122,-22.287945],[-46.845093,-22.287913],[-46.845069,-22.287891],[-46.844963,-22.287823],[-46.844932,-22.287799],[-46.844881,-22.287745],[-46.844846,-22.287701],[-46.844822,-22.28766],[-46.844803,-22.287604],[-46.844796,-22.287557],[-46.844795,-22.287482],[-46.844806,-22.287399],[-46.84482,-22.287357],[-46.84485,-22.287295],[-46.844907,-22.28723],[-46.844992,-22.287173],[-46.84511,-22.287136],[-46.845172,-22.28713],[-46.845256,-22.28713],[-46.845334,-22.287139],[-46.84543,-22.287159],[-46.845536,-22.287177],[-46.845596,-22.28718],[-46.845757,-22.287172],[-46.845914,-22.287148],[-46.84607,-22.287111],[-46.84616,-22.287071],[-46.846409,-22.286961],[-46.846567,-22.286911],[-46.846637,-22.286897],[-46.846736,-22.286893],[-46.846836,-22.286897],[-46.846942,-22.286919],[-46.847038,-22.286948],[-46.847098,-22.286975],[-46.847145,-22.287007],[-46.847187,-22.287043],[-46.847221,-22.287092],[-46.847245,-22.287138],[-46.847259,-22.287187],[-46.847265,-22.287217],[-46.847266,-22.28727],[-46.847259,-22.287328],[-46.847252,-22.287357],[-46.847226,-22.287404],[-46.847199,-22.287436],[-46.847149,-22.287471],[-46.847064,-22.287499],[-46.846945,-22.287523],[-46.846722,-22.287565],[-46.846561,-22.287599],[-46.846396,-22.287617],[-46.846274,-22.287617],[-46.84615,-22.287606],[-46.846107,-22.287605],[-46.845995,-22.287602],[-46.845899,-22.287612],[-46.845792,-22.287654],[-46.845721,-22.287701],[-46.845669,-22.287757],[-46.845628,-22.287834],[-46.845595,-22.28793],[-46.845589,-22.288004],[-46.845594,-22.288083],[-46.845617,-22.288162],[-46.845652,-22.288244],[-46.845744,-22.288365],[-46.845794,-22.288405],[-46.845849,-22.288439],[-46.845904,-22.288467],[-46.845965,-22.288487],[-46.846135,-22.288522],[-46.846282,-22.288549],[-46.846329,-22.288546],[-46.846395,-22.288538],[-46.846488,-22.288512],[-46.84661,-22.288455],[-46.846842,-22.288333],[-46.847042,-22.288226],[-46.847329,-22.288072],[-46.847493,-22.287988],[-46.847697,-22.287881],[-46.847893,-22.287779],[-46.848105,-22.287669],[-46.84836,-22.287537],[-46.848631,-22.287395],[-46.848699,-22.287359],[-46.848706,-22.287356]]},"properties":{"stroke-width":7}},{"type":"Feature","properties":{"stroke-width":7},"geometry":{"type":"LineString","coordinates":[[-46.700372,-23.69988],[-46.700363,-23.69998],[-46.700371,-23.70005],[-46.700389,-23.700127],[-46.700411,-23.700267],[-46.700416,-23.700295],[-46.70043,-23.700446],[-46.700431,-23.700458],[-46.700436,-23.700563],[-46.700435,-23.700677],[-46.70043,-23.700756],[-46.700425,-23.70082],[-46.70041,-23.700914],[-46.700386,-23.701025],[-46.700351,-23.701185],[-46.70031,-23.701358],[-46.700272,-23.701519],[-46.700219,-23.701743],[-46.700216,-23.701755],[-46.700204,-23.70188],[-46.700233,-23.702125],[-46.700231,-23.702225],[-46.700213,-23.70234],[-46.700129,-23.70263],[-46.700068,-23.702846],[-46.699899,-23.703445],[-46.699774,-23.70389],[-46.699637,-23.704377],[-46.699558,-23.704655],[-46.699547,-23.704694],[-46.699431,-23.705106],[-46.69937,-23.705321],[-46.699315,-23.705516],[-46.699264,-23.705702],[-46.699214,-23.705874],[-46.699192,-23.705955],[-46.69919,-23.705961],[-46.69913,-23.70609],[-46.699109,-23.706118],[-46.699066,-23.706154],[-46.699037,-23.706169],[-46.699003,-23.70618],[-46.69897,-23.706182],[-46.69892,-23.706176],[-46.69884,-23.70615],[-46.698681,-23.706067],[-46.69857,-23.706008],[-46.698481,-23.705939],[-46.698242,-23.705708],[-46.698208,-23.705678],[-46.698157,-23.705645],[-46.698084,-23.705617],[-46.698045,-23.705613],[-46.697951,-23.705615],[-46.697894,-23.705631],[-46.697823,-23.70566],[-46.697797,-23.705673],[-46.697682,-23.705732],[-46.6974,-23.705891],[-46.69723,-23.705963],[-46.6971,-23.706],[-46.69698,-23.706022],[-46.696869,-23.706029],[-46.696736,-23.706027],[-46.69663,-23.706014],[-46.696517,-23.705989],[-46.696408,-23.705952],[-46.696296,-23.705897],[-46.69622,-23.70585],[-46.696136,-23.705788],[-46.696099,-23.705754],[-46.696053,-23.705709],[-46.696017,-23.70567],[-46.695963,-23.705605],[-46.695889,-23.705484],[-46.695819,-23.705331],[-46.695719,-23.705093],[-46.695596,-23.704796],[-46.695485,-23.704522],[-46.695397,-23.704302],[-46.695371,-23.704231],[-46.695289,-23.704005],[-46.695228,-23.703806],[-46.695199,-23.70372],[-46.695144,-23.703526],[-46.695078,-23.703313],[-46.695056,-23.703233],[-46.695011,-23.703149],[-46.694975,-23.703108]]}},{"type":"Feature","properties":{"stroke-width":7},"geometry":{"type":"LineString","coordinates":[[-46.846204,-22.287052],[-46.846309,-22.286977],[-46.846471,-22.286898],[-46.846608,-22.286843],[-46.846686,-22.28682],[-46.846761,-22.286805],[-46.846823,-22.286796],[-46.846896,-22.286791],[-46.846952,-22.286793],[-46.847016,-22.286803],[-46.847092,-22.286824],[-46.847261,-22.286906],[-46.847324,-22.286949],[-46.847379,-22.286992],[-46.847424,-22.287037],[-46.847472,-22.287112],[-46.847488,-22.287162],[-46.847495,-22.287219],[-46.847494,-22.287274],[-46.847488,-22.28733],[-46.847442,-22.287456],[-46.847379,-22.287557],[-46.847322,-22.287602],[-46.847185,-22.287667],[-46.847007,-22.287752],[-46.846939,-22.287786],[-46.846883,-22.287818],[-46.846862,-22.287841],[-46.846844,-22.287873],[-46.846835,-22.287902],[-46.84683,-22.287939],[-46.84684,-22.28798],[-46.846855,-22.288017],[-46.84687,-22.288036],[-46.8469,-22.288055],[-46.846935,-22.288066],[-46.846979,-22.288068],[-46.84702,-22.288063],[-46.847059,-22.28805],[-46.847282,-22.287933],[-46.847632,-22.287751],[-46.847966,-22.287579],[-46.848368,-22.287368],[-46.8487,-22.287194],[-46.849001,-22.287033],[-46.849265,-22.286891],[-46.849381,-22.286828],[-46.849668,-22.286706],[-46.850074,-22.286535],[-46.850442,-22.286376],[-46.850801,-22.286219],[-46.850992,-22.286137],[-46.851098,-22.286088],[-46.85122,-22.286045]]}},{"type":"Feature","properties":{"stroke-width":7},"geometry":{"type":"LineString","coordinates":[[-56.08662,-15.454336],[-56.085936,-15.454661],[-56.085413,-15.454908],[-56.084888,-15.455154],[-56.084442,-15.45537],[-56.084293,-15.455411],[-56.084124,-15.455289],[-56.084032,-15.455158],[-56.084014,-15.455039],[-56.084076,-15.454897],[-56.084153,-15.454783],[-56.084283,-15.45467],[-56.084362,-15.454585],[-56.084448,-15.454425],[-56.08447,-15.454081],[-56.084457,-15.453747],[-56.084392,-15.453595],[-56.084285,-15.453461],[-56.081841,-15.451185],[-56.081763,-15.451132],[-56.081617,-15.451109],[-56.081526,-15.451169],[-56.081493,-15.451294],[-56.082108,-15.4534],[-56.082097,-15.453625],[-56.082017,-15.453758],[-56.081856,-15.453888],[-56.081688,-15.453945],[-56.081527,-15.453936],[-56.081344,-15.453851],[-56.081265,-15.453704],[-56.081001,-15.452832],[-56.080907,-15.45271],[-56.080776,-15.45264],[-56.080584,-15.452654],[-56.080479,-15.452721],[-56.080406,-15.452806],[-56.080352,-15.452925],[-56.079645,-15.455518],[-56.079622,-15.455688],[-56.079651,-15.455791],[-56.07976,-15.455888],[-56.079905,-15.455913],[-56.080013,-15.455895],[-56.081527,-15.455357],[-56.081646,-15.455341],[-56.081802,-15.455351],[-56.081943,-15.455407],[-56.08211,-15.455534],[-56.082208,-15.455655],[-56.082259,-15.455846],[-56.082279,-15.456022],[-56.082219,-15.456203],[-56.082154,-15.456325],[-56.082018,-15.45648],[-56.080765,-15.456989],[-56.080374,-15.457091],[-56.080078,-15.457107],[-56.079751,-15.457071],[-56.079121,-15.456916],[-56.078795,-15.456793],[-56.07852,-15.456629],[-56.078251,-15.456337],[-56.078098,-15.456029],[-56.078039,-15.455782],[-56.07806,-15.455542],[-56.081103,-15.449121],[-56.081238,-15.449057],[-56.081459,-15.449007],[-56.081756,-15.448981],[-56.082056,-15.449004],[-56.082257,-15.449091],[-56.085417,-15.452043],[-56.086711,-15.453243],[-56.08685,-15.4534],[-56.086929,-15.4536],[-56.086963,-15.453812],[-56.086925,-15.454026],[-56.086818,-15.454216],[-56.08662,-15.454336],[-56.085908,-15.454674],[-56.085674,-15.454784],[-56.085413,-15.454907],[-56.085151,-15.455031],[-56.084888,-15.455154],[-56.084442,-15.455369],[-56.084294,-15.455411],[-56.082018,-15.45648]]}},{"type":"Feature","properties":{"stroke-width":7},"geometry":{"type":"LineString","coordinates":[[-51.171481,-23.282628],[-51.171633,-23.282679],[-51.171781,-23.28275],[-51.171931,-23.282862],[-51.172057,-23.282996],[-51.17215,-23.28314],[-51.172216,-23.283298],[-51.172379,-23.283814],[-51.172386,-23.283954],[-51.172338,-23.284097],[-51.172233,-23.284251],[-51.172154,-23.28432],[-51.172015,-23.284391],[-51.171817,-23.284417],[-51.170468,-23.28434],[-51.170348,-23.284303],[-51.170243,-23.284178],[-51.170215,-23.284098],[-51.170217,-23.283989],[-51.170254,-23.283875],[-51.170325,-23.283794],[-51.170428,-23.283749],[-51.17058,-23.283741],[-51.171421,-23.283767],[-51.171562,-23.283733],[-51.171676,-23.283647],[-51.171759,-23.283519],[-51.171811,-23.283391],[-51.171807,-23.283233],[-51.171753,-23.283089],[-51.171661,-23.282965],[-51.171515,-23.282878],[-51.170882,-23.282721],[-51.170636,-23.282648],[-51.170074,-23.282461],[-51.169679,-23.282311],[-51.169218,-23.282106],[-51.168791,-23.281905],[-51.168363,-23.281686],[-51.167836,-23.281418],[-51.167154,-23.281071],[-51.166884,-23.280961],[-51.166561,-23.280866],[-51.166244,-23.280802],[-51.165918,-23.280759],[-51.165669,-23.28073],[-51.16556,-23.280726],[-51.165264,-23.280722],[-51.164953,-23.280741],[-51.164672,-23.280785],[-51.164468,-23.280834],[-51.164237,-23.280934],[-51.16408,-23.281021],[-51.163945,-23.281118],[-51.16384,-23.28125],[-51.163795,-23.281317],[-51.16357,-23.281701],[-51.163533,-23.281744],[-51.163449,-23.281825],[-51.163295,-23.281864],[-51.16316,-23.281858],[-51.163031,-23.281791],[-51.162956,-23.281701],[-51.162915,-23.281594],[-51.16292,-23.281466],[-51.162991,-23.281037],[-51.162982,-23.280933],[-51.161867,-23.280773],[-51.161591,-23.28073],[-51.161464,-23.28068],[-51.16137,-23.280588],[-51.161327,-23.280493],[-51.161305,-23.280365],[-51.161338,-23.280259],[-51.161414,-23.280138],[-51.161536,-23.280055],[-51.161658,-23.280024],[-51.161819,-23.280024],[-51.16209,-23.280051],[-51.163479,-23.280205],[-51.163634,-23.280191],[-51.16379,-23.280138],[-51.163867,-23.280081],[-51.163925,-23.280031],[-51.163992,-23.279962],[-51.164102,-23.27982],[-51.164208,-23.279734],[-51.164325,-23.279682],[-51.164469,-23.27967],[-51.16461,-23.279691],[-51.164736,-23.279729],[-51.165103,-23.279842],[-51.165727,-23.280067],[-51.166318,-23.28034],[-51.166687,-23.280528],[-51.167334,-23.280853],[-51.167898,-23.281132],[-51.168663,-23.28152],[-51.169162,-23.281766],[-51.169642,-23.282005],[-51.170108,-23.2822],[-51.170644,-23.282374],[-51.171014,-23.282489],[-51.17136,-23.282593],[-51.171486,-23.282629]]}},{"type":"Feature","properties":{"stroke-width":7},"geometry":{"type":"LineString","coordinates":[[-51.170245,-23.284177],[-51.170185,-23.284116],[-51.170156,-23.283992],[-51.170152,-23.283829],[-51.170167,-23.283765],[-51.170214,-23.283691],[-51.17028,-23.283649],[-51.170381,-23.283616],[-51.170516,-23.283586],[-51.170667,-23.283569],[-51.170808,-23.283562],[-51.171163,-23.283559],[-51.171302,-23.283543],[-51.171408,-23.283507],[-51.171485,-23.283427],[-51.17153,-23.283354],[-51.171541,-23.283283],[-51.17154,-23.28321],[-51.171507,-23.283133],[-51.171462,-23.283074],[-51.171409,-23.283037],[-51.171253,-23.282978],[-51.171178,-23.282977],[-51.171153,-23.282993],[-51.171078,-23.283062],[-51.171045,-23.283078],[-51.171007,-23.283074],[-51.170979,-23.283058],[-51.170607,-23.282753],[-51.170496,-23.282702],[-51.168854,-23.282136],[-51.168667,-23.282039],[-51.168403,-23.281872],[-51.168196,-23.281741],[-51.167761,-23.28144],[-51.167421,-23.281208]]}}]}