{"type":"FeatureCollection","features":[{"type":"Feature","properties":{"stroke-width":7},"geometry":{"type":"LineString","coordinates":[[-53.38804,-24.981006],[-53.388688,-24.982069],[-53.389118,-24.982768],[-53.389492,-24.983401],[-53.389609,-24.983595],[-53.389814,-24.98393],[-53.389864,-24.984045],[-53.389897,-24.984138],[-53.38992,-24.984241],[-53.389927,-24.984309],[-53.389931,-24.984443],[-53.389897,-24.984637],[-53.389859,-24.984769],[-53.389796,-24.984897],[-53.389683,-24.985071],[-53.389573,-24.98519],[-53.389462,-24.985295],[-53.389352,-24.985381],[-53.389212,-24.985466],[-53.389059,-24.985536],[-53.3889,-24.98559],[-53.388752,-24.985609],[-53.388662,-24.985612],[-53.388488,-24.985588],[-53.388269,-24.985519],[-53.388031,-24.985418],[-53.387838,-24.9853],[-53.387621,-24.985139],[-53.387484,-24.984987],[-53.387388,-24.984852],[-53.387214,-24.98456],[-53.387062,-24.9843],[-53.386913,-24.984047],[-53.386744,-24.983763],[-53.386616,-24.983547],[-53.386385,-24.983154],[-53.386268,-24.982952],[-53.386095,-24.982663],[-53.386031,-24.982516],[-53.385988,-24.982365],[-53.38597,-24.982218],[-53.385981,-24.982069],[-53.386027,-24.981908],[-53.386175,-24.981609],[-53.386345,-24.981262],[-53.386401,-24.981123],[-53.386403,-24.980972],[-53.386354,-24.98084],[-53.386279,-24.980719],[-53.386159,-24.980618],[-53.386055,-24.980561],[-53.385905,-24.980518],[-53.38575,-24.980522],[-53.385412,-24.980577],[-53.384716,-24.980685],[-53.384059,-24.980789],[-53.38394,-24.98083],[-53.383812,-24.98088],[-53.383673,-24.980961],[-53.383486,-24.981101],[-53.383177,-24.981363],[-53.382883,-24.981604],[-53.382511,-24.981916],[-53.38207,-24.982281],[-53.381794,-24.982508],[-53.381548,-24.982713],[-53.381435,-24.982782],[-53.381314,-24.982821],[-53.381172,-24.982847],[-53.381038,-24.982843],[-53.380909,-24.982805],[-53.380795,-24.982748],[-53.38069,-24.982671],[-53.380612,-24.982588],[-53.38036,-24.982201],[-53.380148,-24.981876],[-53.380124,-24.981792],[-53.380123,-24.981663],[-53.380176,-24.981564],[-53.380259,-24.981467],[-53.380373,-24.981403],[-53.380898,-24.981232],[-53.381816,-24.980924],[-53.382994,-24.980533],[-53.383942,-24.980215],[-53.384425,-24.980058],[-53.384972,-24.979877],[-53.385788,-24.979608],[-53.386299,-24.97944],[-53.386485,-24.979402],[-53.386717,-24.979397],[-53.386947,-24.979458],[-53.387008,-24.979489],[-53.38709,-24.979549],[-53.387183,-24.979631],[-53.387261,-24.979729],[-53.387409,-24.97997],[-53.387631,-24.980333],[-53.387861,-24.980709],[-53.388039,-24.981006]]}},{"type":"Feature","properties":{"stroke-width":7},"geometry":{"type":"LineString","coordinates":[[-53.383946,-24.980213],[-53.384075,-24.980234],[-53.384278,-24.980168],[-53.384747,-24.980011],[-53.385242,-24.97991],[-53.385724,-24.979813],[-53.385889,-24.979812],[-53.386177,-24.979851],[-53.386227,-24.979849],[-53.38644,-24.979655],[-53.386581,-24.979604],[-53.386662,-24.979591],[-53.38679,-24.979591],[-53.386886,-24.979607],[-53.387095,-24.979728],[-53.387272,-24.980025],[-53.387436,-24.980298],[-53.387549,-24.980487],[-53.387955,-24.981159],[-53.38812,-24.981434],[-53.388292,-24.981719],[-53.388431,-24.981946],[-53.388525,-24.982102],[-53.388636,-24.982288],[-53.388731,-24.982446],[-53.388906,-24.982734],[-53.389046,-24.982968],[-53.389298,-24.983383],[-53.38938,-24.983522],[-53.38945,-24.983661],[-53.389525,-24.983804],[-53.38957,-24.983999],[-53.38956,-24.984119],[-53.389545,-24.984315],[-53.389445,-24.984602],[-53.389263,-24.984837],[-53.389042,-24.984997],[-53.388781,-24.985119],[-53.388468,-24.985193],[-53.388279,-24.985194],[-53.388094,-24.985168],[-53.387889,-24.985114],[-53.387746,-24.985045],[-53.387529,-24.98487],[-53.387342,-24.984642],[-53.387295,-24.984582],[-53.387008,-24.984121],[-53.38684,-24.983851],[-53.386717,-24.983651],[-53.386675,-24.98358],[-53.386619,-24.983551]]}},{"type":"Feature","properties":{"stroke-width":7},"geometry":{"type":"LineString","coordinates":[[-46.700002,-23.703676],[-46.699364,-23.705939],[-46.699319,-23.706038],[-46.699243,-23.706174],[-46.69912,-23.706323],[-46.698973,-23.706424],[-46.698879,-23.706443],[-46.698748,-23.706424],[-46.69868,-23.706388],[-46.698609,-23.706335],[-46.698323,-23.706052],[-46.698279,-23.706023],[-46.69821,-23.70599],[-46.698134,-23.70598],[-46.698064,-23.705985],[-46.697982,-23.706016],[-46.697906,-23.706054],[-46.697802,-23.706119],[-46.697553,-23.706244],[-46.697323,-23.706305],[-46.696948,-23.706323],[-46.696759,-23.706298],[-46.696655,-23.706277],[-46.696486,-23.706217],[-46.696259,-23.706102],[-46.696041,-23.705944],[-46.695859,-23.705744],[-46.695727,-23.705511],[-46.695468,-23.704758],[-46.695251,-23.704058],[-46.695029,-23.703306],[-46.694938,-23.70297],[-46.694778,-23.702371],[-46.694374,-23.70099],[-46.694105,-23.700122],[-46.69407,-23.700004],[-46.694057,-23.699901],[-46.694066,-23.699808],[-46.694085,-23.699738],[-46.694108,-23.699684],[-46.694169,-23.699613],[-46.694242,-23.699556],[-46.694319,-23.699519],[-46.694629,-23.69945],[-46.694987,-23.699392],[-46.695273,-23.699352],[-46.695366,-23.699349],[-46.695528,-23.699352],[-46.695667,-23.699372],[-46.695771,-23.699399],[-46.695902,-23.699445],[-46.695999,-23.699493],[-46.696121,-23.699571],[-46.69622,-23.699653],[-46.696288,-23.69971],[-46.696516,-23.699969],[-46.696676,-23.700168],[-46.697041,-23.70063],[-46.697526,-23.701248],[-46.697866,-23.701673],[-46.698199,-23.702098],[-46.698276,-23.702193],[-46.698396,-23.702291],[-46.698478,-23.702337],[-46.698662,-23.702402],[-46.698822,-23.702413],[-46.698999,-23.70241],[-46.699218,-23.70237],[-46.699449,-23.702281],[-46.699633,-23.702169],[-46.699737,-23.702074],[-46.699786,-23.701978],[-46.699843,-23.701804],[-46.699922,-23.701409],[-46.699969,-23.701116],[-46.699988,-23.70102],[-46.7,-23.700887],[-46.7,-23.700769],[-46.699983,-23.700676],[-46.699941,-23.700607],[-46.699864,-23.700557],[-46.699787,-23.700528],[-46.699697,-23.700517],[-46.699622,-23.700536],[-46.699529,-23.700575],[-46.699432,-23.700634],[-46.699289,-23.700731],[-46.699181,-23.700785],[-46.699074,-23.700806],[-46.698942,-23.700802],[-46.698827,-23.700764],[-46.698736,-23.700713],[-46.698665,-23.700625],[-46.698627,-23.700546],[-46.698599,-23.700465],[-46.698614,-23.700303],[-46.698661,-23.700206],[-46.698785,-23.700073],[-46.699111,-23.699786],[-46.699349,-23.699542],[-46.699419,-23.699445],[-46.699497,-23.6993],[-46.699541,-23.699154],[-46.69964,-23.69877],[-46.699644,-23.698629],[-46.699596,-23.698523],[-46.699516,-23.698477],[-46.699442,-23.698448],[-46.699354,-23.698446],[-46.69928,-23.698475],[-46.699218,-23.698521],[-46.699152,-23.698582],[-46.699071,-23.698659],[-46.698721,-23.699007],[-46.69859,-23.699136],[-46.69851,-23.699199],[-46.698432,-23.699248],[-46.698322,-23.699303],[-46.698185,-23.699356],[-46.698068,-23.69938],[-46.697891,-23.699395],[-46.697723,-23.699385],[-46.697549,-23.699349],[-46.697406,-23.699287],[-46.697269,-23.6992],[-46.697154,-23.699107],[-46.69704,-23.698961],[-46.696819,-23.698651],[-46.69642,-23.698057],[-46.696225,-23.69776],[-46.696149,-23.697638],[-46.696137,-23.697552],[-46.696156,-23.697485],[-46.69618,-23.697444],[-46.696232,-23.697385],[-46.696318,-23.697333],[-46.696592,-23.697221],[-46.697238,-23.697005],[-46.697298,-23.696996],[-46.697347,-23.696995],[-46.697381,-23.696995],[-46.697486,-23.697005],[-46.697955,-23.697073],[-46.69828,-23.697142],[-46.698484,-23.697206],[-46.698789,-23.697336],[-46.699133,-23.697488],[-46.699368,-23.697623],[-46.699493,-23.697714],[-46.699614,-23.697818],[-46.699717,-23.69792],[-46.699833,-23.698087],[-46.699916,-23.698247],[-46.699977,-23.698403],[-46.700054,-23.698671],[-46.700116,-23.69891],[-46.700187,-23.699174],[-46.70028,-23.69954],[-46.700412,-23.700035],[-46.700515,-23.700444],[-46.700542,-23.700547],[-46.700555,-23.700598],[-46.700573,-23.700699],[-46.700594,-23.700857],[-46.700601,-23.700971],[-46.700608,-23.701141],[-46.700598,-23.701338],[-46.700562,-23.701564],[-46.700531,-23.701751],[-46.700464,-23.702029],[-46.700391,-23.70229],[-46.700308,-23.702591],[-46.700184,-23.703032],[-46.700002,-23.703675]]}},{"type":"Feature","properties":{"stroke-width":7},"geometry":{"type":"LineString","coordinates":[[-46.848706,-22.287356],[-46.849222,-22.287086],[-46.849914,-22.286727],[-46.850538,-22.286403],[-46.851056,-22.286127],[-46.851265,-22.286022],[-46.851552,-22.285878],[-46.851632,-22.285838],[-46.8517,-22.285817],[-46.851793,-22.285806],[-46.851865,-22.285807],[-46.85194,-22.285821],[-46.851998,-22.285847],[-46.852047,-22.285881],[-46.852088,-22.285925],[-46.852114,-22.285966],[-46.852141,-22.286012],[-46.852164,-22.286073],[-46.852182,-22.286156],[-46.852201,-22.286285],[-46.852205,-22.286386],[-46.852203,-22.286502],[-46.85219,-22.286627],[-46.852157,-22.286744],[-46.852055,-22.287125],[-46.851979,-22.287393],[-46.851915,-22.287624],[-46.851883,-22.287698],[-46.85183,-22.28777],[-46.851767,-22.287827],[-46.85169,-22.287885],[-46.851609,-22.287925],[-46.851527,-22.287952],[-46.851446,-22.287971],[-46.851345,-22.287979],[-46.851206,-22.287974],[-46.851001,-22.287951],[-46.850668,-22.287911],[-46.850337,-22.287873],[-46.850043,-22.287836],[-46.849621,-22.287787],[-46.849434,-22.287764],[-46.84936,-22.287761],[-46.849296,-22.287773],[-46.849255,-22.287793],[-46.849219,-22.287833],[-46.849209,-22.287871],[-46.849211,-22.287921],[-46.849237,-22.288031],[-46.84928,-22.288189],[-46.849378,-22.288564],[-46.849414,-22.288695],[-46.849425,-22.288765],[-46.849428,-22.288835],[-46.849404,-22.288908],[-46.849353,-22.288966],[-46.84929,-22.289002],[-46.849209,-22.289016],[-46.849119,-22.289007],[-46.849007,-22.288947],[-46.848935,-22.288895],[-46.848863,-22.288846],[-46.848779,-22.288806],[-46.848725,-22.288782],[-46.848646,-22.288756],[-46.848569,-22.288733],[-46.848445,-22.288707],[-46.848287,-22.288695],[-46.848172,-22.288699],[-46.848063,-22.288713],[-46.847936,-22.288742],[-46.8478,-22.288786],[-46.847595,-22.288879],[-46.847363,-22.288998],[-46.847059,-22.289163],[-46.846914,-22.289251],[-46.846843,-22.289301],[-46.846801,-22.289349],[-46.84676,-22.289413],[-46.846736,-22.289493],[-46.846729,-22.289563],[-46.846747,-22.289634],[-46.846768,-22.28968],[-46.846792,-22.289715],[-46.846848,-22.289781],[-46.847122,-22.29004],[-46.847636,-22.290517],[-46.848036,-22.290888],[-46.848101,-22.290948],[-46.848132,-22.290985],[-46.848173,-22.291043],[-46.848197,-22.291097],[-46.848227,-22.291184],[-46.848238,-22.291235],[-46.848244,-22.291263],[-46.848249,-22.291375],[-46.848238,-22.291444],[-46.848192,-22.291584],[-46.848004,-22.291964],[-46.847727,-22.292516],[-46.847553,-22.292867],[-46.847492,-22.292982],[-46.847425,-22.293056],[-46.847391,-22.293082],[-46.847303,-22.293109],[-46.847228,-22.293113],[-46.847148,-22.293103],[-46.847072,-22.29307],[-46.847006,-22.293014],[-46.846976,-22.292966],[-46.846954,-22.292907],[-46.846944,-22.292839],[-46.846952,-22.292777],[-46.846954,-22.292758],[-46.847017,-22.292528],[-46.847047,-22.2924],[-46.847067,-22.292272],[-46.847079,-22.292068],[-46.847069,-22.291899],[-46.847039,-22.29174],[-46.847014,-22.291641],[-46.847014,-22.291641],[-46.846924,-22.291396],[-46.846831,-22.291225],[-46.846773,-22.291131],[-46.846622,-22.290928],[-46.846441,-22.290687],[-46.846037,-22.290154],[-46.845771,-22.2898],[-46.845704,-22.289709],[-46.845442,-22.289356],[-46.84527,-22.289119],[-46.845133,-22.288934],[-46.845001,-22.288754],[-46.844929,-22.288659],[-46.844888,-22.288604],[-46.844855,-22.288528],[-46.844841,-22.288464],[-46.844844,-22.288417],[-46.844873,-22.28834],[-46.844935,-22.288284],[-46.84505,-22.288226],[-46.845099,-22.288184],[-46.845141,-22.288127],[-46.845157,-22.288086],[-46.845157,-22.288036],[-46.845142,-22.287978],[-46.845122,-22.287945],[-46.845093,-22.287913],[-46.845069,-22.287891],[-46.844963,-22.287823],[-46.844932,-22.287799],[-46.844881,-22.287745],[-46.844846,-22.287701],[-46.844822,-22.28766],[-46.844803,-22.287604],[-46.844796,-22.287557],[-46.844795,-22.287482],[-46.844806,-22.287399],[-46.84482,-22.287357],[-46.84485,-22.287295],[-46.844907,-22.28723],[-46.844992,-22.287173],[-46.84511,-22.287136],[-46.845172,-22.28713],[-46.845256,-22.28713],[-46.845334,-22.287139],[-46.84543,-22.287159],[-46.845536,-22.287177],[-46.845596,-22.28718],[-46.845757,-22.287172],[-46.845914,-22.287148],[-46.84607,-22.287111],[-46.84616,-22.287071],[-46.846409,-22.286961],[-46.846567,-22.286911],[-46.846637,-22.286897],[-46.846736,-22.286893],[-46.846836,-22.286897],[-46.846942,-22.286919],[-46.847038,-22.286948],[-46.847098,-22.286975],[-46.847145,-22.287007],[-46.847187,-22.287043],[-46.847221,-22.287092],[-46.847245,-22.287138],[-46.847259,-22.287187],[-46.847265,-22.287217],[-46.847266,-22.28727],[-46.847259,-22.287328],[-46.847252,-22.287357],[-46.847226,-22.287404],[-46.847199,-22.287436],[-46.847149,-22.287471],[-46.847064,-22.287499],[-46.846945,-22.287523],[-46.846722,-22.287565],[-46.846561,-22.287599],[-46.846396,-22.287617],[-46.846274,-22.287617],[-46.84615,-22.287606],[-46.846107,-22.287605],[-46.845995,-22.287602],[-46.845899,-22.287612],[-46.845792,-22.287654],[-46.845721,-22.287701],[-46.845669,-22.287757],[-46.845628,-22.287834],[-46.845595,-22.28793],[-46.845589,-22.288004],[-46.845594,-22.288083],[-46.845617,-22.288162],[-46.845652,-22.288244],[-46.845744,-22.288365],[-46.845794,-22.288405],[-46.845849,-22.288439],[-46.845904,-22.288467],[-46.845965,-22.288487],[-46.846135,-22.288522],[-46.846282,-22.288549],[-46.846329,-22.288546],[-46.846395,-22.288538],[-46.846488,-22.288512],[-46.84661,-22.288455],[-46.846842,-22.288333],[-46.847042,-22.288226],[-46.847329,-22.288072],[-46.847493,-22.287988],[-46.847697,-22.287881],[-46.847893,-22.287779],[-46.848105,-22.287669],[-46.84836,-22.287537],[-46.848631,-22.287395],[-46.848699,-22.287359],[-46.848706,-22.287356]]}}]}
