{"type":"FeatureCollection","features":[{"type":"Feature","properties":{"stroke-width":7},"geometry":{"type":"LineString","coordinates":[[-56.08662,-15.454336],[-56.085936,-15.454661],[-56.085413,-15.454908],[-56.084888,-15.455154],[-56.084442,-15.45537],[-56.084293,-15.455411],[-56.084124,-15.455289],[-56.084032,-15.455158],[-56.084014,-15.455039],[-56.084076,-15.454897],[-56.084153,-15.454783],[-56.084283,-15.45467],[-56.084362,-15.454585],[-56.084448,-15.454425],[-56.08447,-15.454081],[-56.084457,-15.453747],[-56.084392,-15.453595],[-56.084285,-15.453461],[-56.081841,-15.451185],[-56.081763,-15.451132],[-56.081617,-15.451109],[-56.081526,-15.451169],[-56.081493,-15.451294],[-56.082108,-15.4534],[-56.082097,-15.453625],[-56.082017,-15.453758],[-56.081856,-15.453888],[-56.081688,-15.453945],[-56.081527,-15.453936],[-56.081344,-15.453851],[-56.081265,-15.453704],[-56.081001,-15.452832],[-56.080907,-15.45271],[-56.080776,-15.45264],[-56.080584,-15.452654],[-56.080479,-15.452721],[-56.080406,-15.452806],[-56.080352,-15.452925],[-56.079645,-15.455518],[-56.079622,-15.455688],[-56.079651,-15.455791],[-56.07976,-15.455888],[-56.079905,-15.455913],[-56.080013,-15.455895],[-56.081527,-15.455357],[-56.081646,-15.455341],[-56.081802,-15.455351],[-56.081943,-15.455407],[-56.08211,-15.455534],[-56.082208,-15.455655],[-56.082259,-15.455846],[-56.082279,-15.456022],[-56.082219,-15.456203],[-56.082154,-15.456325],[-56.082018,-15.45648],[-56.080765,-15.456989],[-56.080374,-15.457091],[-56.080078,-15.457107],[-56.079751,-15.457071],[-56.079121,-15.456916],[-56.078795,-15.456793],[-56.07852,-15.456629],[-56.078251,-15.456337],[-56.078098,-15.456029],[-56.078039,-15.455782],[-56.07806,-15.455542],[-56.081103,-15.449121],[-56.081238,-15.449057],[-56.081459,-15.449007],[-56.081756,-15.448981],[-56.082056,-15.449004],[-56.082257,-15.449091],[-56.085417,-15.452043],[-56.086711,-15.453243],[-56.08685,-15.4534],[-56.086929,-15.4536],[-56.086963,-15.453812],[-56.086925,-15.454026],[-56.086818,-15.454216],[-56.08662,-15.454336],[-56.085908,-15.454674],[-56.085674,-15.454784],[-56.085413,-15.454907],[-56.085151,-15.455031],[-56.084888,-15.455154],[-56.084442,-15.455369],[-56.084294,-15.455411],[-56.082018,-15.45648]]}}]}