{"type":"FeatureCollection","features":[{"type":"Feature","properties":{"stroke-width":7},"geometry":{"type":"LineString","coordinates":[[-44.410932,-18.808636],[-44.410759,-18.808596],[-44.410486,-18.808591],[-44.410077,-18.808735],[-44.407542,-18.80959],[-44.407326,-18.809699],[-44.407164,-18.809858],[-44.407038,-18.810057],[-44.406949,-18.810345],[-44.406979,-18.810653],[-44.407068,-18.810877],[-44.407268,-18.811125],[-44.407457,-18.811269],[-44.407729,-18.811359],[-44.408002,-18.811388],[-44.408286,-18.811339],[-44.408559,-18.811224],[-44.411027,-18.809786],[-44.411216,-18.809597],[-44.411305,-18.809428],[-44.411331,-18.809219],[-44.411294,-18.80903],[-44.411158,-18.808792],[-44.410932,-18.808636],[-44.408559,-18.811224]]}}]}