{"type":"FeatureCollection","features":[{"type":"Feature","geometry":{"type":"LineString","coordinates":[[-46.700002,-23.703676],[-46.699364,-23.705939],[-46.699319,-23.706038],[-46.699243,-23.706174],[-46.69912,-23.706323],[-46.698973,-23.706424],[-46.698879,-23.706443],[-46.698748,-23.706424],[-46.69868,-23.706388],[-46.698609,-23.706335],[-46.698323,-23.706052],[-46.698279,-23.706023],[-46.69821,-23.70599],[-46.698134,-23.70598],[-46.698064,-23.705985],[-46.697982,-23.706016],[-46.697906,-23.706054],[-46.697802,-23.706119],[-46.697553,-23.706244],[-46.697323,-23.706305],[-46.696948,-23.706323],[-46.696759,-23.706298],[-46.696655,-23.706277],[-46.696486,-23.706217],[-46.696259,-23.706102],[-46.696041,-23.705944],[-46.695859,-23.705744],[-46.695727,-23.705511],[-46.695468,-23.704758],[-46.695251,-23.704058],[-46.695029,-23.703306],[-46.694938,-23.70297],[-46.694778,-23.702371],[-46.694374,-23.70099],[-46.694105,-23.700122],[-46.69407,-23.700004],[-46.694057,-23.699901],[-46.694066,-23.699808],[-46.694085,-23.699738],[-46.694108,-23.699684],[-46.694169,-23.699613],[-46.694242,-23.699556],[-46.694319,-23.699519],[-46.694629,-23.69945],[-46.694987,-23.699392],[-46.695273,-23.699352],[-46.695366,-23.699349],[-46.695528,-23.699352],[-46.695667,-23.699372],[-46.695771,-23.699399],[-46.695902,-23.699445],[-46.695999,-23.699493],[-46.696121,-23.699571],[-46.69622,-23.699653],[-46.696288,-23.69971],[-46.696516,-23.699969],[-46.696676,-23.700168],[-46.697041,-23.70063],[-46.697526,-23.701248],[-46.697866,-23.701673],[-46.698199,-23.702098],[-46.698276,-23.702193],[-46.698396,-23.702291],[-46.698478,-23.702337],[-46.698662,-23.702402],[-46.698822,-23.702413],[-46.698999,-23.70241],[-46.699218,-23.70237],[-46.699449,-23.702281],[-46.699633,-23.702169],[-46.699737,-23.702074],[-46.699786,-23.701978],[-46.699843,-23.701804],[-46.699922,-23.701409],[-46.699969,-23.701116],[-46.699988,-23.70102],[-46.7,-23.700887],[-46.7,-23.700769],[-46.699983,-23.700676],[-46.699941,-23.700607],[-46.699864,-23.700557],[-46.699787,-23.700528],[-46.699697,-23.700517],[-46.699622,-23.700536],[-46.699529,-23.700575],[-46.699432,-23.700634],[-46.699289,-23.700731],[-46.699181,-23.700785],[-46.699074,-23.700806],[-46.698942,-23.700802],[-46.698827,-23.700764],[-46.698736,-23.700713],[-46.698665,-23.700625],[-46.698627,-23.700546],[-46.698599,-23.700465],[-46.698614,-23.700303],[-46.698661,-23.700206],[-46.698785,-23.700073],[-46.699111,-23.699786],[-46.699349,-23.699542],[-46.699419,-23.699445],[-46.699497,-23.6993],[-46.699541,-23.699154],[-46.69964,-23.69877],[-46.699644,-23.698629],[-46.699596,-23.698523],[-46.699516,-23.698477],[-46.699442,-23.698448],[-46.699354,-23.698446],[-46.69928,-23.698475],[-46.699218,-23.698521],[-46.699152,-23.698582],[-46.699071,-23.698659],[-46.698721,-23.699007],[-46.69859,-23.699136],[-46.69851,-23.699199],[-46.698432,-23.699248],[-46.698322,-23.699303],[-46.698185,-23.699356],[-46.698068,-23.69938],[-46.697891,-23.699395],[-46.697723,-23.699385],[-46.697549,-23.699349],[-46.697406,-23.699287],[-46.697269,-23.6992],[-46.697154,-23.699107],[-46.69704,-23.698961],[-46.696819,-23.698651],[-46.69642,-23.698057],[-46.696225,-23.69776],[-46.696149,-23.697638],[-46.696137,-23.697552],[-46.696156,-23.697485],[-46.69618,-23.697444],[-46.696232,-23.697385],[-46.696318,-23.697333],[-46.696592,-23.697221],[-46.697238,-23.697005],[-46.697298,-23.696996],[-46.697347,-23.696995],[-46.697381,-23.696995],[-46.697486,-23.697005],[-46.697955,-23.697073],[-46.69828,-23.697142],[-46.698484,-23.697206],[-46.698789,-23.697336],[-46.699133,-23.697488],[-46.699368,-23.697623],[-46.699493,-23.697714],[-46.699614,-23.697818],[-46.699717,-23.69792],[-46.699833,-23.698087],[-46.699916,-23.698247],[-46.699977,-23.698403],[-46.700054,-23.698671],[-46.700116,-23.69891],[-46.700187,-23.699174],[-46.70028,-23.69954],[-46.700412,-23.700035],[-46.700515,-23.700444],[-46.700542,-23.700547],[-46.700555,-23.700598],[-46.700573,-23.700699],[-46.700594,-23.700857],[-46.700601,-23.700971],[-46.700608,-23.701141],[-46.700598,-23.701338],[-46.700562,-23.701564],[-46.700531,-23.701751],[-46.700464,-23.702029],[-46.700391,-23.70229],[-46.700308,-23.702591],[-46.700184,-23.703032],[-46.700002,-23.703675]]},"properties":{"stroke-width":7}},{"type":"Feature","properties":{"stroke-width":7},"geometry":{"type":"LineString","coordinates":[[-46.700372,-23.69988],[-46.700363,-23.69998],[-46.700371,-23.70005],[-46.700389,-23.700127],[-46.700411,-23.700267],[-46.700416,-23.700295],[-46.70043,-23.700446],[-46.700431,-23.700458],[-46.700436,-23.700563],[-46.700435,-23.700677],[-46.70043,-23.700756],[-46.700425,-23.70082],[-46.70041,-23.700914],[-46.700386,-23.701025],[-46.700351,-23.701185],[-46.70031,-23.701358],[-46.700272,-23.701519],[-46.700219,-23.701743],[-46.700216,-23.701755],[-46.700204,-23.70188],[-46.700233,-23.702125],[-46.700231,-23.702225],[-46.700213,-23.70234],[-46.700129,-23.70263],[-46.700068,-23.702846],[-46.699899,-23.703445],[-46.699774,-23.70389],[-46.699637,-23.704377],[-46.699558,-23.704655],[-46.699547,-23.704694],[-46.699431,-23.705106],[-46.69937,-23.705321],[-46.699315,-23.705516],[-46.699264,-23.705702],[-46.699214,-23.705874],[-46.699192,-23.705955],[-46.69919,-23.705961],[-46.69913,-23.70609],[-46.699109,-23.706118],[-46.699066,-23.706154],[-46.699037,-23.706169],[-46.699003,-23.70618],[-46.69897,-23.706182],[-46.69892,-23.706176],[-46.69884,-23.70615],[-46.698681,-23.706067],[-46.69857,-23.706008],[-46.698481,-23.705939],[-46.698242,-23.705708],[-46.698208,-23.705678],[-46.698157,-23.705645],[-46.698084,-23.705617],[-46.698045,-23.705613],[-46.697951,-23.705615],[-46.697894,-23.705631],[-46.697823,-23.70566],[-46.697797,-23.705673],[-46.697682,-23.705732],[-46.6974,-23.705891],[-46.69723,-23.705963],[-46.6971,-23.706],[-46.69698,-23.706022],[-46.696869,-23.706029],[-46.696736,-23.706027],[-46.69663,-23.706014],[-46.696517,-23.705989],[-46.696408,-23.705952],[-46.696296,-23.705897],[-46.69622,-23.70585],[-46.696136,-23.705788],[-46.696099,-23.705754],[-46.696053,-23.705709],[-46.696017,-23.70567],[-46.695963,-23.705605],[-46.695889,-23.705484],[-46.695819,-23.705331],[-46.695719,-23.705093],[-46.695596,-23.704796],[-46.695485,-23.704522],[-46.695397,-23.704302],[-46.695371,-23.704231],[-46.695289,-23.704005],[-46.695228,-23.703806],[-46.695199,-23.70372],[-46.695144,-23.703526],[-46.695078,-23.703313],[-46.695056,-23.703233],[-46.695011,-23.703149],[-46.694975,-23.703108]]}}]}