{"type":"FeatureCollection","features":[{"type":"Feature","properties":{"stroke-width":7},"geometry":{"type":"LineString","coordinates":[[-51.171481,-23.282628],[-51.171633,-23.282679],[-51.171781,-23.28275],[-51.171931,-23.282862],[-51.172057,-23.282996],[-51.17215,-23.28314],[-51.172216,-23.283298],[-51.172379,-23.283814],[-51.172386,-23.283954],[-51.172338,-23.284097],[-51.172233,-23.284251],[-51.172154,-23.28432],[-51.172015,-23.284391],[-51.171817,-23.284417],[-51.170468,-23.28434],[-51.170348,-23.284303],[-51.170243,-23.284178],[-51.170215,-23.284098],[-51.170217,-23.283989],[-51.170254,-23.283875],[-51.170325,-23.283794],[-51.170428,-23.283749],[-51.17058,-23.283741],[-51.171421,-23.283767],[-51.171562,-23.283733],[-51.171676,-23.283647],[-51.171759,-23.283519],[-51.171811,-23.283391],[-51.171807,-23.283233],[-51.171753,-23.283089],[-51.171661,-23.282965],[-51.171515,-23.282878],[-51.170882,-23.282721],[-51.170636,-23.282648],[-51.170074,-23.282461],[-51.169679,-23.282311],[-51.169218,-23.282106],[-51.168791,-23.281905],[-51.168363,-23.281686],[-51.167836,-23.281418],[-51.167154,-23.281071],[-51.166884,-23.280961],[-51.166561,-23.280866],[-51.166244,-23.280802],[-51.165918,-23.280759],[-51.165669,-23.28073],[-51.16556,-23.280726],[-51.165264,-23.280722],[-51.164953,-23.280741],[-51.164672,-23.280785],[-51.164468,-23.280834],[-51.164237,-23.280934],[-51.16408,-23.281021],[-51.163945,-23.281118],[-51.16384,-23.28125],[-51.163795,-23.281317],[-51.16357,-23.281701],[-51.163533,-23.281744],[-51.163449,-23.281825],[-51.163295,-23.281864],[-51.16316,-23.281858],[-51.163031,-23.281791],[-51.162956,-23.281701],[-51.162915,-23.281594],[-51.16292,-23.281466],[-51.162991,-23.281037],[-51.162982,-23.280933],[-51.161867,-23.280773],[-51.161591,-23.28073],[-51.161464,-23.28068],[-51.16137,-23.280588],[-51.161327,-23.280493],[-51.161305,-23.280365],[-51.161338,-23.280259],[-51.161414,-23.280138],[-51.161536,-23.280055],[-51.161658,-23.280024],[-51.161819,-23.280024],[-51.16209,-23.280051],[-51.163479,-23.280205],[-51.163634,-23.280191],[-51.16379,-23.280138],[-51.163867,-23.280081],[-51.163925,-23.280031],[-51.163992,-23.279962],[-51.164102,-23.27982],[-51.164208,-23.279734],[-51.164325,-23.279682],[-51.164469,-23.27967],[-51.16461,-23.279691],[-51.164736,-23.279729],[-51.165103,-23.279842],[-51.165727,-23.280067],[-51.166318,-23.28034],[-51.166687,-23.280528],[-51.167334,-23.280853],[-51.167898,-23.281132],[-51.168663,-23.28152],[-51.169162,-23.281766],[-51.169642,-23.282005],[-51.170108,-23.2822],[-51.170644,-23.282374],[-51.171014,-23.282489],[-51.17136,-23.282593],[-51.171486,-23.282629]]}},{"type":"Feature","properties":{"stroke-width":7},"geometry":{"type":"LineString","coordinates":[[-51.170245,-23.284177],[-51.170185,-23.284116],[-51.170156,-23.283992],[-51.170152,-23.283829],[-51.170167,-23.283765],[-51.170214,-23.283691],[-51.17028,-23.283649],[-51.170381,-23.283616],[-51.170516,-23.283586],[-51.170667,-23.283569],[-51.170808,-23.283562],[-51.171163,-23.283559],[-51.171302,-23.283543],[-51.171408,-23.283507],[-51.171485,-23.283427],[-51.17153,-23.283354],[-51.171541,-23.283283],[-51.17154,-23.28321],[-51.171507,-23.283133],[-51.171462,-23.283074],[-51.171409,-23.283037],[-51.171253,-23.282978],[-51.171178,-23.282977],[-51.171153,-23.282993],[-51.171078,-23.283062],[-51.171045,-23.283078],[-51.171007,-23.283074],[-51.170979,-23.283058],[-51.170607,-23.282753],[-51.170496,-23.282702],[-51.168854,-23.282136],[-51.168667,-23.282039],[-51.168403,-23.281872],[-51.168196,-23.281741],[-51.167761,-23.28144],[-51.167421,-23.281208]]}}]}