{"type":"FeatureCollection","features":[{"type":"Feature","properties":{"stroke-width":7},"geometry":{"type":"LineString","coordinates":[[-52.43465,-29.802058],[-52.434416,-29.801529],[-52.434255,-29.801162],[-52.434098,-29.800807],[-52.433971,-29.800518],[-52.43389,-29.800334],[-52.433826,-29.800188],[-52.433747,-29.800011],[-52.433689,-29.799876],[-52.433614,-29.799708],[-52.433526,-29.799505],[-52.433394,-29.799207],[-52.43333,-29.799061],[-52.43331,-29.799013],[-52.433207,-29.798782],[-52.433095,-29.798527],[-52.432941,-29.798181],[-52.432767,-29.797782],[-52.43272,-29.797676],[-52.432639,-29.797496],[-52.432567,-29.797329],[-52.432514,-29.79721],[-52.432504,-29.797193],[-52.432484,-29.797064],[-52.432486,-29.796962],[-52.432526,-29.796869],[-52.432602,-29.796807],[-52.432742,-29.796744],[-52.432847,-29.796731],[-52.433145,-29.796723],[-52.433655,-29.796709],[-52.434133,-29.796696],[-52.43429,-29.796712],[-52.434399,-29.796763],[-52.434519,-29.796883],[-52.434609,-29.796944],[-52.434729,-29.796973],[-52.435618,-29.796963],[-52.435813,-29.796949],[-52.435989,-29.796925],[-52.436371,-29.796848],[-52.436861,-29.796751],[-52.437344,-29.796655],[-52.437704,-29.796583],[-52.437887,-29.796511],[-52.43802,-29.796437],[-52.438242,-29.796232],[-52.438385,-29.796098],[-52.438533,-29.796026],[-52.438632,-29.796003],[-52.438751,-29.795999],[-52.438872,-29.79601],[-52.439003,-29.796059],[-52.43911,-29.79613],[-52.439177,-29.796201],[-52.439245,-29.796312],[-52.439283,-29.796423],[-52.439291,-29.796519],[-52.439266,-29.796628],[-52.439214,-29.796737],[-52.439117,-29.796827],[-52.439013,-29.796891],[-52.438871,-29.796949],[-52.438864,-29.796952],[-52.438715,-29.796967],[-52.438443,-29.79699],[-52.438262,-29.797028],[-52.438243,-29.797036],[-52.438185,-29.797066],[-52.438111,-29.797106],[-52.43794,-29.797215],[-52.437932,-29.797221],[-52.437761,-29.797401],[-52.437594,-29.797577],[-52.437437,-29.797743],[-52.437316,-29.797869],[-52.436944,-29.798261],[-52.436685,-29.798529],[-52.436524,-29.798704],[-52.436424,-29.798816],[-52.436302,-29.798949],[-52.436188,-29.799075],[-52.436097,-29.799177],[-52.436003,-29.799278],[-52.435975,-29.799313],[-52.435903,-29.799391],[-52.435897,-29.799398],[-52.435751,-29.799511],[-52.435631,-29.799582],[-52.435505,-29.799607],[-52.435319,-29.799569],[-52.435059,-29.799482],[-52.434971,-29.799481],[-52.43487,-29.799517],[-52.434776,-29.799584],[-52.434699,-29.799667],[-52.434672,-29.799766],[-52.43468,-29.799844],[-52.434721,-29.799959],[-52.434902,-29.800109],[-52.435086,-29.800261],[-52.435249,-29.800395],[-52.435373,-29.800447],[-52.435527,-29.800466],[-52.435677,-29.800437],[-52.435871,-29.800348],[-52.436286,-29.799984],[-52.436343,-29.799931],[-52.436481,-29.79981],[-52.436573,-29.799728],[-52.436653,-29.799656],[-52.436729,-29.799591],[-52.436885,-29.799451],[-52.437054,-29.799343],[-52.43724,-29.799257],[-52.437483,-29.799212],[-52.437706,-29.799211],[-52.43793,-29.799263],[-52.438107,-29.799335],[-52.43825,-29.799422],[-52.438407,-29.799567],[-52.438518,-29.79975],[-52.438582,-29.799909],[-52.438608,-29.800098],[-52.4386,-29.800239],[-52.438555,-29.800397],[-52.438484,-29.800543],[-52.438384,-29.800672],[-52.438191,-29.800856],[-52.438054,-29.801055],[-52.437948,-29.801303],[-52.437931,-29.80145],[-52.437922,-29.80165],[-52.437946,-29.801804],[-52.438,-29.801958],[-52.438151,-29.80217],[-52.438346,-29.802359],[-52.438563,-29.802525],[-52.438652,-29.802597],[-52.43866,-29.802603],[-52.438786,-29.802778],[-52.438863,-29.802978],[-52.438881,-29.80319],[-52.438834,-29.803382],[-52.43875,-29.803545],[-52.438625,-29.803677],[-52.438462,-29.803789],[-52.438285,-29.803863],[-52.438051,-29.803898],[-52.437626,-29.803904],[-52.437208,-29.803909],[-52.436873,-29.803916],[-52.436435,-29.803926],[-52.436296,-29.803929],[-52.43604,-29.803914],[-52.435839,-29.803876],[-52.435701,-29.803818],[-52.435549,-29.803715],[-52.435387,-29.803571],[-52.435251,-29.803374],[-52.435246,-29.803366],[-52.435134,-29.803161],[-52.435079,-29.803031],[-52.434993,-29.80284],[-52.434888,-29.802603],[-52.434806,-29.802411],[-52.434707,-29.802189],[-52.43465,-29.802058]]}},{"type":"Feature","properties":{"stroke-width":7},"geometry":{"type":"LineString","coordinates":[[-52.437598,-29.803903],[-52.437425,-29.803884],[-52.437416,-29.803883],[-52.437252,-29.803871],[-52.437194,-29.803866],[-52.436923,-29.803858],[-52.436732,-29.803852],[-52.436546,-29.803834],[-52.436457,-29.803824],[-52.436154,-29.80378],[-52.435954,-29.803736],[-52.435829,-29.803702],[-52.435707,-29.803635],[-52.435615,-29.803567],[-52.435518,-29.80345],[-52.435418,-29.803247],[-52.435361,-29.80313],[-52.435338,-29.803084],[-52.435311,-29.803027],[-52.435271,-29.802939],[-52.435226,-29.802844],[-52.435204,-29.802793],[-52.435189,-29.802761],[-52.435148,-29.802672],[-52.435085,-29.802536],[-52.435073,-29.802509],[-52.43505,-29.802457],[-52.435017,-29.802386],[-52.434961,-29.802265],[-52.434892,-29.802113],[-52.434847,-29.802015],[-52.434814,-29.801944],[-52.434756,-29.801817],[-52.434639,-29.801564],[-52.43452,-29.801308],[-52.434484,-29.801232],[-52.434423,-29.801108],[-52.434387,-29.801033],[-52.434435,-29.800986],[-52.434459,-29.80092],[-52.434456,-29.800859],[-52.434446,-29.800724],[-52.4344,-29.800623],[-52.434346,-29.800499],[-52.434251,-29.800283],[-52.434196,-29.800157],[-52.434144,-29.80004],[-52.434114,-29.799971],[-52.434081,-29.799893],[-52.434029,-29.799777],[-52.433984,-29.799675],[-52.433917,-29.799525],[-52.433863,-29.799401],[-52.433817,-29.799295],[-52.433793,-29.799241],[-52.433759,-29.799165],[-52.433716,-29.799066],[-52.433697,-29.799029],[-52.433526,-29.798937],[-52.433195,-29.798754]]}}]}