{"type":"FeatureCollection","features":[{"type":"Feature","properties":{"stroke-width":9},"geometry":{"type":"LineString","coordinates":[[-46.848706,-22.287356],[-46.849222,-22.287086],[-46.849914,-22.286727],[-46.850538,-22.286403],[-46.851056,-22.286127],[-46.851265,-22.286022],[-46.851552,-22.285878],[-46.851632,-22.285838],[-46.8517,-22.285817],[-46.851793,-22.285806],[-46.851865,-22.285807],[-46.85194,-22.285821],[-46.851998,-22.285847],[-46.852047,-22.285881],[-46.852088,-22.285925],[-46.852114,-22.285966],[-46.852141,-22.286012],[-46.852164,-22.286073],[-46.852182,-22.286156],[-46.852201,-22.286285],[-46.852205,-22.286386],[-46.852203,-22.286502],[-46.85219,-22.286627],[-46.852157,-22.286744],[-46.852055,-22.287125],[-46.851979,-22.287393],[-46.851915,-22.287624],[-46.851883,-22.287698],[-46.85183,-22.28777],[-46.851767,-22.287827],[-46.85169,-22.287885],[-46.851609,-22.287925],[-46.851527,-22.287952],[-46.851446,-22.287971],[-46.851345,-22.287979],[-46.851206,-22.287974],[-46.851001,-22.287951],[-46.850668,-22.287911],[-46.850337,-22.287873],[-46.850043,-22.287836],[-46.849621,-22.287787],[-46.849434,-22.287764],[-46.84936,-22.287761],[-46.849296,-22.287773],[-46.849255,-22.287793],[-46.849219,-22.287833],[-46.849209,-22.287871],[-46.849211,-22.287921],[-46.849237,-22.288031],[-46.84928,-22.288189],[-46.849378,-22.288564],[-46.849414,-22.288695],[-46.849425,-22.288765],[-46.849428,-22.288835],[-46.849404,-22.288908],[-46.849353,-22.288966],[-46.84929,-22.289002],[-46.849209,-22.289016],[-46.849119,-22.289007],[-46.849007,-22.288947],[-46.848935,-22.288895],[-46.848863,-22.288846],[-46.848779,-22.288806],[-46.848725,-22.288782],[-46.848646,-22.288756],[-46.848569,-22.288733],[-46.848445,-22.288707],[-46.848287,-22.288695],[-46.848172,-22.288699],[-46.848063,-22.288713],[-46.847936,-22.288742],[-46.8478,-22.288786],[-46.847595,-22.288879],[-46.847363,-22.288998],[-46.847059,-22.289163],[-46.846914,-22.289251],[-46.846843,-22.289301],[-46.846801,-22.289349],[-46.84676,-22.289413],[-46.846736,-22.289493],[-46.846729,-22.289563],[-46.846747,-22.289634],[-46.846768,-22.28968],[-46.846792,-22.289715],[-46.846848,-22.289781],[-46.847122,-22.29004],[-46.847636,-22.290517],[-46.848036,-22.290888],[-46.848101,-22.290948],[-46.848132,-22.290985],[-46.848173,-22.291043],[-46.848197,-22.291097],[-46.848227,-22.291184],[-46.848238,-22.291235],[-46.848244,-22.291263],[-46.848249,-22.291375],[-46.848238,-22.291444],[-46.848192,-22.291584],[-46.848004,-22.291964],[-46.847727,-22.292516],[-46.847553,-22.292867],[-46.847492,-22.292982],[-46.847425,-22.293056],[-46.847391,-22.293082],[-46.847303,-22.293109],[-46.847228,-22.293113],[-46.847148,-22.293103],[-46.847072,-22.29307],[-46.847006,-22.293014],[-46.846976,-22.292966],[-46.846954,-22.292907],[-46.846944,-22.292839],[-46.846952,-22.292777],[-46.846954,-22.292758],[-46.847017,-22.292528],[-46.847047,-22.2924],[-46.847067,-22.292272],[-46.847079,-22.292068],[-46.847069,-22.291899],[-46.847039,-22.29174],[-46.847014,-22.291641],[-46.847014,-22.291641],[-46.846924,-22.291396],[-46.846831,-22.291225],[-46.846773,-22.291131],[-46.846622,-22.290928],[-46.846441,-22.290687],[-46.846037,-22.290154],[-46.845771,-22.2898],[-46.845704,-22.289709],[-46.845442,-22.289356],[-46.84527,-22.289119],[-46.845133,-22.288934],[-46.845001,-22.288754],[-46.844929,-22.288659],[-46.844888,-22.288604],[-46.844855,-22.288528],[-46.844841,-22.288464],[-46.844844,-22.288417],[-46.844873,-22.28834],[-46.844935,-22.288284],[-46.84505,-22.288226],[-46.845099,-22.288184],[-46.845141,-22.288127],[-46.845157,-22.288086],[-46.845157,-22.288036],[-46.845142,-22.287978],[-46.845122,-22.287945],[-46.845093,-22.287913],[-46.845069,-22.287891],[-46.844963,-22.287823],[-46.844932,-22.287799],[-46.844881,-22.287745],[-46.844846,-22.287701],[-46.844822,-22.28766],[-46.844803,-22.287604],[-46.844796,-22.287557],[-46.844795,-22.287482],[-46.844806,-22.287399],[-46.84482,-22.287357],[-46.84485,-22.287295],[-46.844907,-22.28723],[-46.844992,-22.287173],[-46.84511,-22.287136],[-46.845172,-22.28713],[-46.845256,-22.28713],[-46.845334,-22.287139],[-46.84543,-22.287159],[-46.845536,-22.287177],[-46.845596,-22.28718],[-46.845757,-22.287172],[-46.845914,-22.287148],[-46.84607,-22.287111],[-46.84616,-22.287071],[-46.846409,-22.286961],[-46.846567,-22.286911],[-46.846637,-22.286897],[-46.846736,-22.286893],[-46.846836,-22.286897],[-46.846942,-22.286919],[-46.847038,-22.286948],[-46.847098,-22.286975],[-46.847145,-22.287007],[-46.847187,-22.287043],[-46.847221,-22.287092],[-46.847245,-22.287138],[-46.847259,-22.287187],[-46.847265,-22.287217],[-46.847266,-22.28727],[-46.847259,-22.287328],[-46.847252,-22.287357],[-46.847226,-22.287404],[-46.847199,-22.287436],[-46.847149,-22.287471],[-46.847064,-22.287499],[-46.846945,-22.287523],[-46.846722,-22.287565],[-46.846561,-22.287599],[-46.846396,-22.287617],[-46.846274,-22.287617],[-46.84615,-22.287606],[-46.846107,-22.287605],[-46.845995,-22.287602],[-46.845899,-22.287612],[-46.845792,-22.287654],[-46.845721,-22.287701],[-46.845669,-22.287757],[-46.845628,-22.287834],[-46.845595,-22.28793],[-46.845589,-22.288004],[-46.845594,-22.288083],[-46.845617,-22.288162],[-46.845652,-22.288244],[-46.845744,-22.288365],[-46.845794,-22.288405],[-46.845849,-22.288439],[-46.845904,-22.288467],[-46.845965,-22.288487],[-46.846135,-22.288522],[-46.846282,-22.288549],[-46.846329,-22.288546],[-46.846395,-22.288538],[-46.846488,-22.288512],[-46.84661,-22.288455],[-46.846842,-22.288333],[-46.847042,-22.288226],[-46.847329,-22.288072],[-46.847493,-22.287988],[-46.847697,-22.287881],[-46.847893,-22.287779],[-46.848105,-22.287669],[-46.84836,-22.287537],[-46.848631,-22.287395],[-46.848699,-22.287359],[-46.848706,-22.287356]]}}]}